centre_code,centre_name,postal_code,Latitude,Longitude
PT9814,MAPLEBEAR LITTLE FEATS PTE LTD,618494,1.3245,103.7202
PT9037,BERRY TREE PRESCHOOL PRIVATE LIMITED,543319,1.3909,103.8906
YM0110,MY WORLD PRESCHOOL LTD.,520855,1.3536,103.9353
RC1856,Little Shepherds' Schoolhouse@Church of St Francis of Assisi (BL),649964,1.3479,103.711
PT9621,Brainy Bunch Pasir Ris Pte Ltd,510237,1.3741,103.9629
ST0292,PCF Sparkletots Preschool @ Cheng San-Seletar Blk 533 (KN),560533,1.3742,103.853
ST0307,PCF Sparkletots Preschool @ Pioneer Blk 642 (KN),640642,1.3404,103.6958
ST0310,PCF Sparkletots Preschool @ Pioneer Blk 665A (KN),641665,1.3401,103.7031
ST0011,PCF SPARKLETOTS PRESCHOOL @ TAMPINES WEST BLK 942 (CC),520942,1.3498,103.9406
PT8352,SUNSHINE KIDS EDUCARE PRIVATE LIMITED,530321,1.3671,103.8983
PT8997,Little Greenhouse @ Sengkang Pte. Ltd.,548651,1.3917,103.9004
RC1905,Kidz Meadow Childcare and Development Centre (Bedok North),460431,1.3292,103.9325
PT9751,My Prep School (Montessori) Pte Ltd,467624,1.3183,103.9414
PW0120,PCS YISHUN CHILD CARE CENTRE,760411,1.4257,103.8474
PT9050,YAY! SG PTE. LTD.,536290,1.3458,103.8757
PT9185,Little Oxford @ KE08 Pte. Ltd.,418929,1.3196,103.9129
PT8437,LITTLE PALM PRE-SCHOOL PTE LTD,459210,1.3096,103.9236
WP1107,Kinderland Preschool,307987,1.3196,103.8421
ST0012,PCF SPARKLETOTS PRESCHOOL @ HONG KAH NORTH BLK 345 (CC),650345,1.3628,103.7508
RC0990,SGM MURNI,520411,1.3591,103.9461
PT8386,CARPE DIEM CHILDCARE RESORT PTE. LTD.,829489,1.4204,103.9078
PT9319,PRIME EDUCATION INVESTMENTS HOLDINGS PTE. LTD.,200808,1.3088,103.8613
ST0384,PCF Sparkletots Preschool @ Fernvale Blk 455 (CC),790455,1.3918,103.8712
PT8666,THE ORANGE TREE (CCK) PTE. LTD.,689379,1.3793,103.7592
PT9333,DAYSPRING CHILD CARE CENTRE LLP,828670,1.415,103.899
PT2600,THE CHILDREN'S PLACE PTE LTD,248935,1.2983,103.8098
ST0380,PCF Sparkletots Preschool @ Nee Soon Link Blk 461 (CC),760461,1.4284,103.85
PT9423,CHARIS MONTESSORI PTE. LTD.,545671,1.368,103.8764
NT0502,MY FIRST SKOOL,821126,1.3941,103.9114
ST0385,PCF Sparkletots Preschool @ Kolam Ayer Blk 52 (CC),380052,1.3168,103.8804
ST0173,PCF SPARKLETOTS PRESCHOOL @ KEAT HONG BLK 484 (CC),680484,1.3765,103.7371
PT9624,Iroha Kindergarten,397999,1.3082,103.8808
PT8613,RED SCHOOLHOUSE@TOH TUCK PTE LTD,596883,1.3411,103.77
PT9316,THE SPARK PLAYHOUSE PTE LTD,530406,1.3736,103.8962
PT9023,Little Footprints Preschool Group Pte Ltd,550255,1.3551,103.8709
NT0484,MY FIRST SKOOL,520135,1.348,103.957
PT9733,Akarui Early Years Learning Centre Pte. Ltd.,79314,1.2783,103.8448
SK0024,SKOOL4KIDZ CENTRE,797383,1.3906,103.873
YM0090,MY WORLD PRESCHOOL LTD.,560584,1.3707,103.8535
PT8853,HI5 HOL SEMBAWANG PTE. LTD.,769922,1.4373,103.8274
PT9352,MAPLEBEAR EARLY LEARNING PTE LTD,468699,1.3138,103.9353
PT9344,A STAR CHILDCARE PTE. LTD.,555859,1.3769999999999998,103.8748
YM0186,MY WORLD PRESCHOOL LTD.,90029,1.2737,103.8211
YM0165,MY WORLD PRESCHOOL LTD.,600055,1.3219,103.7376
ST0351,PCF Sparkletots Preschool @ Nee Soon East Blk 367 (EY),760367,1.4296,103.8451
ST0324,PCF Sparkletots Preschool @ Zhenghua Blk 528 (KN),670528,1.3849,103.7656
PT8584,ZEE SCHOOLHOUSE PTE LTD,436788,1.3076,103.893
YM0157,MY WORLD PRESCHOOL LTD.,150052,1.2885,103.8134
PT8993,Star Learners @ Elias Pte Ltd,519132,1.3812,103.9478
PT9182,LITTLE PADDINGTON PRESCHOOL SERANGOON PTE. LTD.,548542,1.366,103.885
PT9337,AGAPE LITTLE UNI. @ COMPASSVALE PTE. LTD.,542293,1.3969999999999998,103.896
YM0155,MY WORLD PRESCHOOL LTD.,542281,1.3857,103.8919
PT9057,SHEFFIELD KIDSWORLD (ST ANNE) PTE. LTD.,545271,1.391,103.903
YM0168,MY WORLD PRESCHOOL LTD.,822661,1.4025,103.9168
YM0173,MY WORLD PRESCHOOL LTD,540338,1.3992,103.8897
NT0531,MY FIRST SKOOL,310219,1.3428,103.8559
PT8950,LITTLE WONDERS MONTESSORI CHILDCARE @ REMAJA PTE. LTD.,668693,1.3583,103.7595
PT5790,CARPE DIEM SCHOOLHOUSE PTE LTD,598640,1.3435,103.7703
YM0156,MY WORLD PRESCHOOL LTD.,752350,1.4501,103.8208
PT9045,ODYSSEY THE GLOBAL PRESCHOOL PTE. LTD.,506996,1.3797,103.9622
YM0187,MY WORLD PRESCHOOL LTD,750132,1.4434,103.8308
YM0175,MY WORLD PRESCHOOL LTD,731183,1.4354,103.7774
PT8761,CARPE DIEM YOUNG JOY PTE. LTD.,670445,1.3836,103.7709
PT8480,CARPE DIEM YOUNG HEARTS PTE. LTD.,520355,1.3551,103.9616
PT8461,CARPE DIEM YOUNG MINDS PTE. LTD.,520219,1.3548,103.9526
YM0161,MY WORLD PRESCHOOL LTD.,163009,1.2868,103.8289
YM0174,MY WORLD PRESCHOOL LTD,821232,1.4022,103.891
YM0162,MY WORLD PRESCHOOL LTD.,562700,1.3694,103.8461
YM0183,MY WORLD PRESCHOOL LTD,650460,1.354,103.7397
YM0172,MY WORLD PRESCHOOL LTD,760675,1.4202,103.8436
YM0191,MY WORLD PRESCHOOL LTD,530993,1.3851,103.8836
YM0164,MY WORLD PRESCHOOL LTD.,533476,1.3779,103.9043
YM0050,MY WORLD PRESCHOOL LTD.,521113,1.3465,103.9462
YM0154,MY WORLD PRESCHOOL LTD.,730725,1.4444,103.7991
PT8433,LITTLE VILLAGE ON THE GRANGE,239704,1.2994,103.8316
YM0100,MY WORLD PRESCHOOL LTD.,520123,1.3453,103.9532
YM0188,MY WORLD PRESCHOOL LTD,520613,1.3655,103.9363
PT9221,WHIZ KIDS MONTESSORI @HOUGANG PTE LTD,530539,1.3775,103.8904
YM0192,MY WORLD PRESCHOOL LTD,520610,1.3646,103.9372
RC1739,SGM LITTLE KIDZ @ RIVERVALE,543188,1.3952,103.9048
YM0160,MY WORLD PRESCHOOL LTD.,732787,1.4446,103.8008
YM0167,MY WORLD PRESCHOOL LTD,820121,1.3937,103.9083
YM0170,MY WORLD PRESCHOOL LTD,320116,1.3277,103.8612
YM0163,MY WORLD PRESCHOOL LTD.,750462,1.4545,103.814
YM0130,MY WORLD PRESCHOOL LTD.,510575,1.3731,103.9463
YM0152,MY WORLD PRESCHOOL LTD.,330004,1.3159,103.8599
YM0060,MY WORLD PRESCHOOL LTD.,570171,1.3468,103.8537
YM0166,MY WORLD PRESCHOOL LTD,531376,1.3635,103.8936
YM0151,MY WORLD PRESCHOOL LTD.,520428,1.3591,103.9489
YM0158,MY WORLD PRESCHOOL LTD.,320014,1.3237,103.8621
YM0185,MY WORLD PRESCHOOL LTD.,550504,1.3737,103.8762
YM0176,MY WORLD PRESCHOOL LTD,751362,1.4472,103.814
YM0171,MY WORLD PRESCHOOL LTD,321113,1.321,103.8598
YM0030,MY WORLD PRESCHOOL LTD.,530373,1.3627,103.8904
PT5210,ACE @ WORK CHILDCARE PTE LTD,680703,1.3913,103.7459
PT9676,NANYANG CHILDREN SCHOOL,102078,1.2736,103.8083
ST0224,PCF Sparkletots Preschool @ Toa Payoh Central Blk 97 (KN),310097,1.3386,103.8478
PT9816,Maplebear Kids Adventure Pte Ltd,419260,1.3230000000000002,103.9058
ST0255,PCF Sparkletots Preschool @ Pasir Ris West Blk 738 (EY),510738,1.3792,103.9365
PT8361,First Steps Preschool @ Depot Road,100108,1.281,103.8102
PT8512,Star Learners @ Woodlands 888 Pte Ltd,730888,1.4374,103.7952
RC1878,St. Paul's Church Kindergarten,534682,1.3586,103.8819
RC1877,St. James' Church Kindergarten,267828,1.3129,103.7962
PT9335,STAR LEARNERS @ SENGKANG WEST PTE LTD,809442,1.3883,103.8657
PT9521,LITTLE PADDINGTON PRESCHOOL EC PTE LTD,457184,1.3156,103.9278
ST0015,PCF SPARKLETOTS PRESCHOOL @ EUNOS BLK 134 (CC),470134,1.3328,103.9127
PT9078,CHILDFIRST@TAMPINES PTE. LTD.,529540,1.3527,103.9429
PT9203,NOBLELAND ARTS N LEARNING PLACE @CLEMENTI PTE. LTD.,123311,1.3201,103.7656
PT8633,BETWEEN TWO TREES PRESCHOOL,277375,1.318,103.787
ST0033,PCF SPARKLETOTS PRESCHOOL @ QUEENSTOWN BLK 365 (CC),149732,1.2991,103.8014
PW0100,PCS ANG MO KIO CHILD CARE CENTRE,560442,1.3657,103.8552
PT9200,PICKET FENCE @ YISHUN PTE. LTD.,768090,1.4368,103.8436
PT9664,IMAN KINDERGARTEN (YISHUN) PTE LTD,760934,1.4258,103.8366
EB0003,E-BRIDGE PRE-SCHOOL PTE. LTD.,541178,1.389,103.9097
PT8572,LITTLE FOOTPRINTS PRESCHOOL PTE. LTD.,347931,1.3294,103.8709
ST0133,PCF Sparkletots Preschool @ Nee Soon South Blk 879 (EY),760879,1.4145,103.836
YW0010,YWCA ANG MO KIO CHILD DEVELOPMENT CENTRE,560513,1.3727,103.8502
PT9739,Thinkkidz,569139,1.3865,103.8447
RC1782,SUPER TALENT CHILDCARE LTD,560218,1.3651,103.8417
PT9408,SUNFLOWER PRESCHOOL @ TECK GHEE PTE LTD,562455,1.3683,103.8585
PT9415,SUNFLOWER PRESCHOOL @ AMK PTE. LTD.,569897,1.3730000000000002,103.8376
PT8611,SUNFLOWER KINDERHUB @ AMK PTE LTD,568659,1.3727,103.8382
PT9157,STAR LEARNERS @ YIO CHU KANG PTE. LTD.,560645,1.3793,103.8422
PT8917,STAR LEARNERS @ ANG MO KIO PTE. LTD.,560320,1.3656,103.8484
PT9401,SHAWS CDLC @LORONG CHUAN PTE. LTD,568346,1.3546,103.8593
PT9435,SDM-MORIAH PRESCHOOL (FLORA VISTA) PTE LTD,567708,1.3913,103.8505
PT9002,PAT'S SCHOOLHOUSE PTE. LTD.,568046,1.3807,103.8466
NT0481,MY FIRST SKOOL,560601,1.381,103.8351
NT0527,MY FIRST SKOOL,560571,1.3701,103.8549
NT0478,MY FIRST SKOOL,560541,1.3739,103.8556
NT0030,MY FIRST SKOOL,560343,1.3684,103.8492
NT0480,MY FIRST SKOOL,560331,1.3621,103.8508
NT0350,MY FIRST SKOOL,560329,1.3666,103.8469
NT0534,MY FIRST SKOOL,560229,1.3691,103.8382
NT0508,MY FIRST SKOOL,560209,1.369,103.8433
PT9043,MINDCHAMPS PRESCHOOL @ YIO CHU KANG PTE. LTD.,569771,1.3816,103.8469
RC1900,Little Seeds Preschool,560610,1.3794,103.8392
PT9754,LITTLE MOPPETS @ NORTHSTAR PTE. LTD.,569880,1.3778,103.8754
PT8240,LITTLE GENIUS EDUCARE CENTRE,560470,1.3641,103.8567
PT9235,LITTLE GEMS PRESCHOOL PTE LTD,569139,1.3865,103.8447
PT9073,LITTLE FOOTPRINTS PRESCHOOL PTE. LTD.,569880,1.3778,103.8754
PT8778,LITTLE CHAMPS SCHOOLHOUSE (MONTESSORI) PTE. LTD.,560447,1.3675,103.8559
WP0610,LEARNING VISION @ WORK PTE. LTD.,569059,1.3894,103.8493
WP0330,LEARNING VISION @ WORK PTE .LTD.,569830,1.3794,103.8489
PT8781,LEARNING KIDZ EDUCENTRE PTE. LTD.,569814,1.3718,103.8478
WP0060,KIDS' STAR CHILD DEVELOPMENT CENTRE (S) PTE LTD,560565,1.3695,103.8583
PT2130,KIDS AND KINS CHILD CARE CENTRE,568179,1.3697,103.8323
PT9497,JUST KIDS @ ANG MO KIO PTE LTD,569841,1.3719,103.8459
RC0830,JAMIYAH CHILD CARE CENTRE,560124,1.3709,103.8448
PT9068,ESHKOL VALLEY @ NORTHSTAR PTE. LTD.,569880,1.3778,103.8754
PT9034,DISCOVERY PLANET LIMITED PARTNERSHIP,569880,1.3778,103.8754
PT7140,CM CENTRAL PTE LTD,560161,1.3742,103.8396
RC1250,CHILD AT STREET 11 LTD,560102,1.3707,103.8394
PT8911,CARPE DIEM @ ITE PTE. LTD.,567720,1.3777,103.8564
PT9414,BUBBLES MONTESSORI PRESCHOOL,560340,1.3645,103.8495
PT9001,BRIGHTON MONTESSORI CENTRES PTE. LTD.,568046,1.3807,103.8466
PT9484,Baby Elk Infant Care Pte Ltd,569139,1.3865,103.8447
RC1550,MORAL CHILD DEVELOPMENT CENTRE (CHEE HOON KOG),460542,1.3307,103.9228
PT3740,SAINT ELMO'S CHILD CARE,530926,1.3761,103.8809
RC0570,TOUCH Community Services Limited,530606,1.3707,103.8859
PT9535,SUNFLOWER PRESCHOOL @ HOUGANG CC (PRIVATE LIMITED),538840,1.3648,103.8927
PT9041,SUNFLOWER PRESCHOOL @ HOUGANG (PTE. LTD.),538766,1.3725,103.8938
PT9324,STAR LEARNERS @ HOUGANG PTE LTD,535736,1.3712,103.8983
PT9375,STAR LEARNERS @ HOUGANG CENTRAL PTE LTD,530434,1.3765,103.8938
SK0021,SKOOL4KIDZ CENTRE,532992,1.3838,103.8817
PT9766,Silk Education Pte. Ltd.,530246,1.3588,103.8915
PT9089,SDM Childcare Centre (Bartley) Pte Ltd,534908,1.3430000000000002,103.8822
PT8972,LITTLE GREENHOUSE @ HOUGANG PTE LTD,538875,1.3589,103.8894
PW0060,PCS HOUGANG CENTRE,530127,1.3529,103.8857
PT8820,PAT'S SCHOOLHOUSE PTE. LTD.,539830,1.3546,103.8828
PT9151,PAT'S SCHOOLHOUSE PTE. LTD.,534625,1.3544,103.878
PT9172,OUR CHILDREN'S HOUSE PTE LTD,536186,1.3466,103.8828
NT0582,MY FIRST SKOOL,530997,1.3854,103.8808
NT0330,MY FIRST SKOOL,530950,1.3755,103.8787
NT0573,MY FIRST SKOOL,530706,1.366,103.8886
NT0490,MY FIRST SKOOL,530677,1.3712,103.8843
NT0290,MY FIRST SKOOL,530667,1.3738,103.8838
NT0492,MY FIRST SKOOL,530528,1.3751,103.8906
NT0460,MY FIRST SKOOL,530170,1.3515,103.8893
PT9448,MAPLEBEAR LEARNING HOUSE PTE LTD,537416,1.3568,103.8862
PT9796,Living Sanctuary Childcare,538728,1.356,103.8914
PT6770,LITTLE TREE HOUSE LLP,537731,1.3691,103.8924
PT9077,LITTLE TREE HOUSE @ HOUGANG PTE. LTD.,537727,1.3693,103.8926
PT1330,KINDERLAND PRESCHOOL,530202,1.3576,103.884
RC1751,KIDZ MEADOW CHILDCARE & DEVELOPMENT CENTRE,533986,1.3826,103.8805
RC1719,KIDZ MEADOW CHILDCARE & DEVELOPMENT CENTRE,533979,1.3795,103.88
PT8428,KIDSKINGDOM PTE. LTD.,530154,1.3522,103.8802
PT6020,JUNIOR PLAYWORLD CHILD CARE & DEVELOPMENT CENTRE,537822,1.3713,103.8974
PT8662,JUNIOR CHAMPS EDUCAMPUS PTE. LTD.,538719,1.3793,103.8878
PT9363,JUNIOR CHAMPS EDUCAMPUS PTE LTD,539775,1.3364,103.8888
PT8457,JUNIOR CHAMPS @ KOVAN PTE. LTD.,530205,1.3595,103.8852
RC1746,IYAD PERDAUS CHILD DEVELOPMENT,530565,1.3805,103.888
PT9377,EMILE PRESCHOOL PTE. LTD.,536202,1.3423,103.8858
PT6510,ELFA PRESCHOOL,530202,1.3576,103.884
EB0011,E-BRIDGE PRE-SCHOOL PTE LTD,532365,1.3692,103.8975
PT8420,CHERIE HEARTS LITTLE PLAY HOUSE PTE LTD,534013,1.3343,103.8896
PT7120,CHERIE HEARTS @ CHARLTON PTE LTD,539643,1.3565,103.8816
RC0790,CHEE HWAN KOG CHILDCARE CENTRE,530695,1.3763,103.8874
PT8509,CARPE DIEM MI SCHOOLHOUSE PTE. LTD.,530954,1.3768,103.8781
PT8640,CARPE DIEM MI PRESCHOOL PTE. LTD.,530946,1.3747,103.8812
PT9532,CAMBRIDGE@KINGSFORD WATERBAY PTE LTD,533893,1.3745,103.9031
PT9753,Brilliant Tots @ Kensington,537846,1.3456,103.8827
PT3190,BLOSSOM EDUCARE CENTRE LLP,536668,1.3707,103.8975
RC1757,BETHEL PRESCHOOL,534514,1.3443,103.8711
RC1020,BETHANY PRESBYTERIAN CHILD DEVELOPMENT CENTRE,534965,1.3483,103.8808
PT9360,AMERICA MONTESSORI INTERNATIONAL PRESCHOOL PTE. LTD.,538202,1.3598,103.8899
PT9392,AGAPE LITTLE UNI. @ UPPER SERANGOON PTE LTD,538473,1.3767,103.902
PT8369,ACEKIDZ CREATIVE EDUCARE,530924,1.3763,103.8821
PT9654,My Montessori Preschool @Bullion,789100,1.3916,103.8367
PT9692,Little Skittles International Preschool,438052,1.2985,103.8891
PT9700,Grace House Kindergarten,659125,1.3648,103.7475
PT9714,Grace House @ TRBK,307584,1.315,103.8445
PT9713,Grace House @ Tanglin Pte Ltd,247960,1.2944,103.8164
PT9585,Cedan Kindergarten,820198,1.3995,103.9064
PT9691,Aces Montessori Kidz Kindergarten,519457,1.3685,103.9594
PT8643,PICKET FENCE @ CANBERRA PTE. LTD.,758419,1.4384,103.8259
PT9515,WHITE LODGE PRESCHOOL RIVER VALLEY PTE LTD,238308,1.2946,103.8421
PT9303,KIDDIWINKIE SCHOOLHOUSE @ GRANDSTAND PTE. LTD.,358187,1.3453,103.8707
PT8959,ACEKIDZ @ WORK PTE. LTD.,683688,1.4032,103.751
PT9430,CHERRY KIDZ MONTESSORI CHILDCARE LLP,758385,1.4273,103.8263
PT9589,White Lodge Kindergarten Phoenix Park Pte Ltd,247975,1.2986,103.8147
ST0128,PCF SPARKLETOTS PRESCHOOL @ SENGKANG CENTRAL BLK 210 (CC),540210,1.3853,103.9
YM0184,MY WORLD PRESCHOOL LTD,342106,1.3336,103.8712
PT9802,Pat's Schoolhouse Pte Ltd,118257,1.289,103.7905
PT9332,THE GARDEN HOUSE PRESCHOOL PTE. LTD.,588406,1.3465,103.7809
PT9815,Little Petals @ Symphony Pte Ltd,768008,1.4349,103.8446
PT8811,JUST KIDS @ CHOA CHU KANG PTE. LTD.,680253,1.3773,103.7444
SK0011,SKOOL4KIDZ CENTRE,760512,1.4148,103.8413
WP0630,KINDERLAND PRESCHOOL,69111,1.2793,103.8466
KM0009,MOE KINDERGARTEN @ FRONTIER,648200,1.3366,103.6997
KM0038,MOE Kindergarten @ Jurong West,648368,1.3394,103.6988
KM0014,MOE KINDERGARTEN @ SPRINGDALE,544799,1.3948,103.8898
YM0070,MY WORLD PRESCHOOL LTD.,670217,1.3749,103.7735
RC1904,Little Seeds Preschool,139790,1.3067,103.7825
PT9229,MINDCHAMPS CHINESE PRESCHOOL@TAMPINES CENTRAL PRIVATE LIMITED,529540,1.3527,103.9429
RC1420,NEW LIFE COMMUNITY SERVICES,677740,1.3862,103.7669
PT2810,SHAWS CDLC @ BRADDELL HEIGHTS PTE LTD,358666,1.3472,103.8631
PT8896,SHAWS CDLC @ MOUNTBATTEN PTE. LTD.,437130,1.3031,103.8971
PT8384,SHAWS CDLC @ MOUNTBATTEN PTE LTD,437839,1.3033,103.8995
NT0400,MY FIRST SKOOL,750331,1.4475,103.8167
PT8438,JUST KIDS @ JURONG PTE. LTD.,600255,1.3443,103.7379
PT9581,Totsville Montessori Kindergarten (Bishan),570230,1.3579,103.8455
PT9580,Totsville Montessori Kindergarten Pte Ltd,510720,1.3816,103.9365
ST0364,PCF Sparkletots Preschool @ Fernvale Blk 416A (DS),791416,1.3906,103.88
ST0200,PCF Sparkletots Preschool @ Fernvale Blk 443 (EY),791443,1.3912,103.8743
PT9283,KidsCampus Whampoa Pte Ltd,327737,1.3247,103.8571
PT9719,Al-Amin Preschool (Pasir Ris),510570,1.3728,103.9465
ST0387,PCF Sparkletots Preschool @ Teck Ghee Blk 227 (EY),560227,1.36899,103.8403
PT9812,Spring Brainy Kidz (Twin VEW),126756,1.3197,103.7527
PT9811,Kidya Childcare Pte Ltd,425500,1.3118,103.9106
PT9808,Brighton Montessori @ Harbourfront,99253,1.2637,103.8199
PT9807,LES OLIVIERS,267211,1.324,103.7968
EB0021,E-Bridge Pre-School Pte Ltd,522875,1.3529,103.9295
PT8471,PLANET MONTESSORI PTE. LTD.,467960,1.3196,103.9521
PT9318,STAR LEARNERS @ CHANGI SIMEI PTE. LTD.,520114,1.3438,103.9504
YM0153,MY WORLD PRESCHOOL LTD.,610354,1.3392,103.7209
PT9445,First Steps Preschool @ Macpherson,349318,1.3288,103.8792
PT9067,BUSY BEES SINGAPORE PTE.LTD.,761348,1.4274,103.8412
ST0170,PCF Sparkletots Preschool @ Kreta Ayer-Kim Seng Blk 8 (DS),380008,1.3127,103.8707
WP1113,Little Seeds Preschool,309070,1.3168,103.8384
RC1795,St. James' Church Kindergarten (Gilstead),309070,1.3168,103.8384
PT9806,Alpha Green Preschool Pte. Ltd,678541,1.3599,103.7685
ST0174,PCF Sparkletots Preschool @ Brickland Blk 807C (CC),683807,1.3762,103.7458
PT8344,DISCOVERY KIDZ PRESCHOOL PTE. LTD.,489773,1.327,103.9513
PT9082,IMONTESSORI PTE. LTD.,339511,1.3097,103.8642
PT9511,THE LITTLE SKOOL-HOUSE INTERNATIONAL PTE LTD,529757,1.3458,103.932
RC1765,BETHEL CHILD DEVELOPMENT CENTRE,380111,1.3204,103.8841
PT9159,Little Footprints Preschool Pte Ltd,541201,1.389,103.8928
RC1829,BARKER ROAD METHODIST CHURCH KINDERGARTEN,309936,1.3191,103.8346
RC0420,Little Shepherds' Schoolhouse@Church of Our Lady Star of the Sea,760235,1.4343,103.8386
YW0150,YWCA PASIR RIS CHILD DEVELOPMENT CENTRE,510214,1.3677,103.9613
PT9479,BUSY BEES SINGAPORE PTE LTD,757044,1.4431,103.8159
PT8718,AMAZING STAR MONTESSORI HOUSE (SK2),548674,1.3934,103.9005
ST0346,PCF Sparkletots Preschool @ Canberra Blk 330 (DS),750330,1.4468,103.8178
NT0528,MY FIRST SKOOL,541314,1.391,103.8891
ST0326,PCF Sparkletots Preschool @ Zhenghua Blk 620 (KN),670620,1.3859,103.7617
PT9338,MAPLEBEAR LITTLE CAMPUS PTE LTD,787013,1.4031,103.8189
RC1260,ASPIRATION CHILD CARE CENTRE,520871,1.3544,103.9327
PT6100,LEARNING KIDZ EDUCARE PTE. LTD.,529653,1.3523,103.9419
ST0008,PCF Sparkletots Preschool @ Sengkang East Blk 194 (CC),540194,1.3926,103.9016
PT9506,MAPLEBEAR LEARNING SCHOOLHOUSE PTE LTD,534818,1.3368,103.8869
PT9708,Bibinogs Preschool K.A. Pte Ltd,269695,1.3232,103.8107
PT9502,STAR LEARNERS @ BUKIT MERAH PTE. LTD.,160134,1.2788,103.8277
PT9631,Seeds D' Learning House,423731,1.3065,103.9053
PT8441,SEEDS LEARNING PLACE @ TIDES PTE LTD,428915,1.3076,103.9069
RC1776,AWWA LTD.,159053,1.2868,103.8144
RC1470,Kidz Meadow Childcare and Development Centre (Yew Tee),680612,1.4,103.7444
PT3460,Sunshine Kids Preschool @Woodlands Pte Ltd,730795,1.4429,103.8041
ST0203,PCF SPARKLETOTS PRESCHOOL @ BUKIT TIMAH BLK 319 (EY),120319,1.3174,103.7648
ST0176,PCF SPARKLETOTS PRESCHOOL @ QUEENSTOWN BLK 53A (CC),143053,1.2933,103.8076
ST0129,PCF SPARKLETOTS PRESCHOOL @ BUKIT TIMAH BLK 12 (CC),590012,1.3384,103.7727
PT9107,TWINKLEKIDZ PLAYHOUSE PTE. LTD.,319579,1.3374,103.8485
PT9181,SAFARI HOUSE PRESCHOOL TAMPINES,485996,1.3428,103.9641
PT9443,SUPERLAND PRE-SCHOOL @ KACC,88995,1.2812,103.843
PT8682,THE KIDZ ZONE PTE LTD,85401,1.2769,103.8415
RC1860,HOLY GRACE KINDERCARE,466484,1.3141,103.9395
PT9630,Children's Vineyard Kindergarten,428103,1.3129,103.903
WP0280,LEARNING VISION @ WORK PTE. LTD.,308433,1.3208,103.8468
PT8696,Little Footprints Preschool Pte Ltd,109840,1.2832,103.8068
PT9458,SUNFLOWER PRESCHOOL @ MINDEF PTE. LTD.,109681,1.2803,103.8141
PT4530,Appleland Playhouse Pte Ltd,103104,1.2805,103.8116
PT9498,Star Learners @ Telok Blangah Pte Ltd,102078,1.2736,103.8083
NT0497,MY FIRST SKOOL,100063,1.2748,103.8109
PT8934,KidsCampus TPCC Pte Ltd,89774,1.2762,103.8416
PT9746,Arts Kidz Pre-School Pte Ltd,88702,1.2735,103.8334
NT0517,MY FIRST SKOOL,82002,1.2752,103.8427
PT8935,STAR LEARNERS @ TANJONG PAGAR PTE. LTD.,82001,1.2757,103.8426
PT8749,MULBERRY LEARNING CENTRE@TANJONG PAGAR PTE. LTD,82001,1.2757,103.8426
PT8799,CARPE DIEM SPRINGS PTE. LTD.,80108,1.2739,103.8357
EB0016,E-BRIDGE PRE-SCHOOL PTE LTD,100092,1.2762,103.8077
PT8541,PMI PRESCHOOL BY THE WOODS PTE LTD,574245,1.3448,103.8375
PT9137,MLC (SEMBAWANG) PTE. LTD.,750406,1.4529,103.817
ST0048,PCF SPARKLETOTS PRESCHOOL @ JURONG CENTRAL BLK 404 (CC),640404,1.3539,103.7225
PT9297,MAPLEBEAR SMARTCUBS PTE. LTD.,339407,1.3122,103.8629
ST0043,PCF SPARKLETOTS PRESCHOOL @ MOULMEIN-CAIRNHILL Blk 50 (CC),210050,1.3131,103.8509
PT8040,Pat's Schoolhouse Pte Ltd,309198,1.3201,103.8408
PT9797,White Lodge Preschool GPR,465466,1.3249,103.9448
PT9813,MapleBear Tree House Pte Ltd,369673,1.3344,103.8882
PT9015,Little Footprints Preschool Group Pte Ltd,760865,1.4143,103.8382
PT9597,EtonHouse International Research Pre-School Pte Ltd,437738,1.3003,103.8867
PT9781,Rain Tree Montessori Schoolhouse,469538,1.3318,103.9476
NT0570,MY FIRST SKOOL,683817,1.3776,103.749
PT5810,KINDERLAND PRESCHOOL,597627,1.3199,103.7794
PT2070,CHILTERN HOUSE,298135,1.3334,103.8392
PT9008,Little Footprints Preschool Pte Ltd,328827,1.3254,103.854
RC1752,THE MORAL CHILDCARE CENTRE,550407,1.3472,103.873
NT0547,MY FIRST SKOOL,160054,1.2874,103.8412
RC1690,Little Shepherds' Schoolhouse@St Joseph's Church,679331,1.3678,103.7681
PT9745,Mulberry Learning Centre @ Kallang Pte Ltd,397699,1.301,103.873
PT9783,Little Paddington Preschool Bartley,367984,1.3336,103.8864
NT0571,MY FIRST SKOOL,390052,1.3107,103.885
RC0960,BETHLEHEM EDUCARE CENTRE (YISHUN),760311,1.4316,103.8408
PT8706,MULBERRY LEARNING CENTRE INTERNATIONAL PTE. LTD.,609921,1.3288,103.7461
PT8566,SHEFFIELD KIDSWORLD (SK) PTE. LTD.,540131,1.3893,103.9031
PT9723,Greentree Montessori Children Cottage,769372,1.439,103.8281
PT8518,GREENTREE MONTESSORI CHILDREN HUB PTE. LTD.,759130,1.4259,103.8238
PT8754,First Steps Preschool @ Jurong,609966,1.3285,103.753
ST0312,PCF Sparkletots Preschool @ Pioneer Blk 662B (KN),642662,1.337,103.7034
NT0584,MY FIRST SKOOL,408528,1.3165,103.8969
NT0010,MY FIRST SKOOL,460419,1.327,103.9281
RC1806,CGM Kindergarten,689457,1.3773,103.7467
ST0362,PCF Sparkletots Preschool @ Tampines Central Blk 868A (KN),521868,1.3554,103.9325
PT9135,MLC (YISHUN) PTE. LTD.,760849,1.4169999999999998,103.8353
PT9694,Josiah Montessori Kindergarten,529284,1.3544,103.96
PT9712,AL-NASRY PRESCHOOL,520476,1.361,103.9534
EB0019,E-Bridge Pre-School Pte Ltd,751126,1.4451,103.835
ST0383,PCF Sparkletots Preschool @ Clementi Blk 445 (EY),120445,1.3134,103.7639
NT0542,MY FIRST SKOOL,797621,1.3931,103.8739
PT9767,Red Schoolhouse Kindercare,357844,1.3427,103.8678
PT9491,CANBERRA SCHOOLHOUSE PTE. LTD.,547227,1.3642,103.8769
PT9503,IMAN CHILDCARE (TAMPINES) PTE LTD,521136,1.3447,103.9452
RC1781,GLOBAL CHILD DEVELOPMENT CENTRE @ TAMPINES,521870,1.3561,103.9318
PT9364,MAPLEBEAR LITTLE LIGHTHOUSE PTE LTD,759218,1.4282,103.8248
PT9775,Faith Methodist Preschool,149604,1.3026,103.7973
PT5400,CHILTERN HOUSE TURF CLUB,287982,1.3346,103.7937
KM0025,MOE Kindergarten @ Fern Green,797538,1.3974,103.8802
WP0731,SUNFLOWER COVE @ MACPHERSON PTE LTD,349282,1.3243,103.8732
RC1510,PPIS CHILD DEVELOPMENT CENTRE - SEMBAWANG VISTA,750316,1.4463,103.8208
RC1180,PPIS CHILD DEVELOPMENT CENTRE - PASIR RIS 2,510187,1.3648,103.9593
PT8822,CHILDFIRST@DUNEARN PTE. LTD.,589472,1.3367,103.7838
PT9342,GREENLAND CHILDCARE @ SUMANG WALK PTE. LTD.,820218,1.4032,103.8954
PT9764,SPRING BUDS LEARNING PLACE PTE LTD,759180,1.4563,103.8362
PT9265,MY TALENT CHILDCARE CENTRE PTE. LTD.,610153,1.3275,103.721
RC0750,PPIS CHILD DEVELOPMENT CENTRE - PASIR RIS1,510557,1.367,103.9521
RC1784,PPIS CHILD DEVELOPMENT CENTRE - JURONG WEST,640949,1.3433,103.6917
RC1750,PPIS CHILD DEVELOPMENT CENTRE - JURONG,640826,1.346,103.6944
RC1798,Newton Kindergarten,307995,1.314,103.8409
NT0496,MY FIRST SKOOL,460503,1.3315,103.9325
PT8439,CHAMPZ SCHOOL HOUSE PTE. LTD.,437844,1.3039,103.9012
PT9384,MULBERRY MARYMOUNT PTE LTD,577178,1.3484,103.8416
NT0552,MY FIRST SKOOL,642180,1.3478,103.7091
WP0300,CHANGI GENERAL HOSPITAL CHILD CARE CENTRE,529906,1.3395,103.9493
PT9158,Little Footprints Preschool Pte Ltd,541275,1.3829,103.8945
PT9021,Little Footprints Preschool Group Pte Ltd,610350,1.3387,103.7191
PT9020,Little Footprints Preschool Group Pte Ltd,644660,1.3364,103.7033
PT9024,Little Footprints Preschool Group Pte Ltd,570140,1.3448,103.8531
PT8230,LEARNING KIDZ CHILD DEVELOPMENT CENTRE LLP,550423,1.3485,103.8756
PT9642,LITTLESPARKS MONTESSORI AND ENRICHMENT CENTRE PTE LTD,456192,1.3157,103.9192
RC1874,Evangel Kindergarten,738488,1.4395,103.7918
RC1742,PPIS CHILD DEVELOPMENT CENTRE - BEDOK RESERVOIR,470709,1.3354,103.9224
ST0020,PCF Sparkletots Preschool @ Nee Soon East Blk 357 (EY),760357,1.426,103.846
PT1450,BLOSSOM CREATIVE CENTRE LLP,468182,1.3226,103.9466
NT0563,MY FIRST SKOOL,828761,1.4065,103.9021
PT9309,JUST KIDS @ BUKIT PANJANG PTE. LTD.,670435,1.386,103.7702
RC0035,GRACE CHILD DEVELOPMENT CENTRE,544644,1.3893,103.9002
RC1825,Queenstown Good Shepherd Kindergarten,149454,1.295,103.8074
PT9518,STAR LEARNERS @ YISHUN PTE LTD,768159,1.4362,103.843
PT9655,KIDZ MEADOW CHILDCARE & DEVELOPMENT CENTRE @ PASIR RIS,519108,1.3837,103.9434
RC0740,CHINESE CHRISTIAN MISSION LIMITED,650108,1.3474,103.7465
ST0361,PCF Sparkletots Preschool @ Jalan Kayu Blk 987C (DS),533987,1.3793,103.8778
PT3100,ICHIBAN MONTESSORI CHILD CARE CENTRE PTE LTD,682803,1.3738,103.7434
PT9809,Bubbles Learning House @ Yishun,760236,1.4341,103.8389
PT9810,LITTLE MOPPETS @ GAMBAS PTE. LTD.,757087,1.4448,103.8128
PT9153,Little Footprints Preschool Pte Ltd,544260,1.3944,103.8959
NT0550,MY FIRST SKOOL,821209,1.3997,103.9007
PT7110,ETONHOUSE PRE-SCHOOL PTE LTD,237995,1.2919999999999998,103.8412
NT0591,My First Skool,650438,1.3581,103.74
YW0020,YWCA BEDOK SOUTH CHILD DEVELOPMENT CENTRE,461024,1.3239,103.9334
PT9149,CAMBRIDGE@FERNVALE PTE. LTD.,791409,1.389,103.8772
PT9244,YOUNG MINDS CHILDCARE CENTRE PTE. LTD.,730316,1.4315,103.7764
PT7720,Sunflower Preschool @ Dakota Pte Ltd,390049,1.3089,103.8854
PT8726,Little Footprints Preschool Pte Ltd,118261,1.288,103.7913
PT8703,LITTLE FOOTPRINTS PRESCHOOL PTE. LTD.,757438,1.4621,103.8158
PT8539,LITTLE FOOTPRINTS PRESCHOOL PTE. LTD.,640721,1.344,103.6976
NT0486,MY FIRST SKOOL,120339,1.3197,103.7691
PT8630,EARLY LEARNING'S FUN PRESCHOOL PTE. LTD.,599057,1.3361,103.7679
PT9670,Sunflower Preschool @ West Terra Pte Ltd,652451,1.3525,103.7434
PT9455,SUNFLOWER PRESCHOOL @ MINDEF PTE. LTD.,609961,1.3309,103.7485
PT9454,SUNFLOWER PRESCHOOL @ MINDEF PTE. LTD.,669638,1.3692,103.7604
PT9508,SMART BERRIIS @ WEST COAST PTE LTD,128524,1.3051,103.7645
PT8905,CARPE DIEM STARLETS 1 PTE. LTD.,680110,1.3782,103.7521
RC1801,Al-Mukminin Mosque Kindergarten,609603,1.3392,103.7414
EB0020,E-Bridge Pre-School Pte Ltd,142095,1.2961,103.8119
PT9063,ILHAM CHILD CARE PTE. LTD.,609966,1.3285,103.753
ST0386,PCF Sparkletots Preschool @ Brickland Blk 810 (CC),680810,1.3741,103.7462
YW0040,YWCA MCNAIR ROAD CHILD DEVELOPMENT CENTRE,328516,1.3186,103.8561
PT9540,STAR LEARNERS @ CCK CENTRAL PTE LTD,680229,1.3807,103.7464
PT8783,STAR LEARNERS @ BISHAN PTE. LTD.,570114,1.3476,103.8489
PT9774,Sengkang Methodist Preschool,545056,1.3922,103.8864
PT2310,MINI WORLD CHILD CARE & DEVELOPMENT CENTRE PTE LTD,460058,1.3259,103.9197
PT9442,CHILDCARE @ THE ENRICHMENT PTE LTD,648965,1.3383,103.6939
PT9312,Pre-school By-The-Park (Evans) Pte Ltd,259367,1.3187,103.8202
PT9628,Bello Bambini Montessori Pte Ltd,577177,1.3488,103.8409
ST0009,HAMPTON PRE-SCHOOL,570178,1.3481,103.8524
PT2240,SWEETLANDS CHILDCARE JE 316 PTE. LTD.,600316,1.3459,103.7322
PT8881,SWEETLANDS CHILDCARE CLEMENTI 607 PTE. LTD.,120607,1.3042,103.7679
PT8810,SWEETLANDS CHILDCARE JW 484 PTE. LTD.,640484,1.3482,103.7264
PT8800,SWEETLANDS CHILDCARE PUNGGOL 612 PTE. LTD.,820612,1.4046,103.9087
PT6200,SWEETLANDS CHILDCARE WOODLANDS 608 PTE. LTD.,730608,1.4362,103.7965
PT7080,SWEETLANDS CHILDCARE WOODLANDS 643 PTE. LTD.,730643,1.4377,103.8016
PT3250,SWEETLANDS CHILDCARE WOODLANDS 896B PTE. LTD.,731896,1.4369,103.7926
PT8864,SWEETLANDS CHILDCARE FARRER RD 6 PTE. LTD.,260006,1.3173,103.8081
PT8946,SWEETLANDS CHILDCARE WOODLANDS @ ACE THE PLACE PTE. LTD.,739069,1.4274,103.7923
PT8866,SWEETLANDS CHILDCARE YISHUN 458 PTE. LTD.,760458,1.4207,103.8462
PT9058,SWEETLANDS CHILDCARE WOODLANDS 886C PTE. LTD.,733886,1.4377,103.7941
PT9680,NAFA Arts Preschool,429064,1.3097,103.914
PT9635,Lumiere Montessori House Pte Ltd,357971,1.3471,103.8698
KM0029,MOE Kindergarten @ Valour,828728,1.4069,103.899
PT9763,SUPERLAND PRE-SCHOOL (RV) PTE. LTD.,238366,1.2961,103.8385
PT9762,SUPERLAND INTERNATIONAL PRE-SCHOOL PTE LTD,247964,1.3056,103.823
PT7210,SUPERLAND MONTESSORI PRE-SCHOOL PTE. LTD.,160568,1.2899,103.831
EB0017,E-BRIDGE PRE-SCHOOL PTE LTD,610140,1.3269,103.7234
PT6650,THE ORANGE TREE (SIMEI) PTE. LTD.,417940,1.3329,103.9043
PT9357,AMITY JUNIORS PTE LTD,659592,1.3446,103.7498
ST0248,PCF Sparkletots Preschool @ Eunos Blk 122 (CC),470122,1.332,103.9106
YM0189,MY WORLD PRESCHOOL LTD,650463,1.3568,103.7414
PT9323,STAR LEARNERS @ SIGLAP PTE. LTD.,459509,1.3227,103.9253
PT9794,Children's Cove Preschool @ Sembawang,758459,1.4418,103.8248
ST0317,PCF Sparkletots Preschool @ Bukit Batok East Blk 289G (KN),656289,1.345,103.7588
ST0369,PCF Sparkletots Preschool @ Brickland Blk 801 (DS),680801,1.3751,103.7435
PT9201,ACEKIDZ @ SG PTE. LTD.,763315,1.4324,103.8433
PT7970,BRIGHTON MONTESSORI INTERNATIONAL PRE-SCHOOL @ FRANKEL,458235,1.3136,103.9199
NT0430,MY FIRST SKOOL,751507,1.4527,103.824
EB0013,E-BRIDGE PRE-SCHOOL PTE LTD,650443,1.3561,103.7373
PT9460,Blue House Childcare,424336,1.3112,103.9058
PT9096,JEET'S LITTLE LEARNERS (BEDOK) PTE. LTD.,469498,1.3306,103.9478
PT9715,Primus Schoolhouse Bukit Timah by Invictus,289758,1.3452,103.7906
NT0537,MY FIRST SKOOL,161051,1.2899,103.8277
PT8651,Twinklekidz International Schoolhouse Pte Ltd,486025,1.3335,103.9655
PT9102,Sunflower Preschool @ Tenaga Pte Ltd,410656,1.3337,103.9075
PT6550,CHILTERN HOUSE EAST COAST,397999,1.3082,103.8808
PT9522,THE LITTLE SKOOL-HOUSE INTERNATIONAL PTE LTD,529541,1.3532,103.9427
ST0068,PCF SPARKLETOTS PRESCHOOL @ RADIN MAS BLK 18 (DS),90018,1.2779,103.8225
ST0089,PCF Sparkletots Preschool @ Sengkang North Blk 298B (CC),542298,1.3955,103.9022
ST0079,PCF Sparkletots Preschool @ Sengkang North Blk 290A (CC),541290,1.3961,103.8967
PT7870,AMAZING STAR MONTESSORI HOUSE (SN),550103,1.3707,103.8703
RC1828,Edelweiss Kindergarten Sembawang Presbyterian Church,768443,1.4413,103.8256
PT9206,CAMBERLEY INTERNATIONAL PRE-SCHOOL PRIVATE LIMITED,259708,1.3164,103.8355
NT0568,MY FIRST SKOOL,540164,1.3893,103.9076
RC1822,Bethesda Ang Mo Kio Kindergarten,569898,1.3747,103.8373
PT8595,Just Kids @ Bukit Merah Pte Ltd,160131,1.2802,103.8282
PT8568,JUST KIDS @ TAMAN JURONG PTE. LTD.,610399,1.3349,103.7204
PT8546,JUST KIDS @ TAMPINES PTE. LTD.,520305,1.3524,103.9559
PT8350,JUST KIDS @MARINE PARADE PTE. LTD.,440050,1.3053,103.9159
PT8663,SUNFLOWER TINKLELAND PRIVATE LIMITED,408868,1.3330000000000002,103.8941
RC1832,TPBC KINDERGARTEN,536698,1.3506,103.8805
PT9404,REDPONY CENTRE CASHEW PTE. LTD.,679564,1.371,103.7662
NT0300,MY FIRST SKOOL,320085,1.3228,103.8564
EB0001,E-BRIDGE PRE-SCHOOL PTE. LTD.,541116,1.3825,103.9022
RC1895,Bethany Kindergarten,534934,1.3443,103.8819
PT9524,MAPLEBEAR EARLY YEARS PTE LTD,469332,1.3219,103.9315
PT9537,MAPLEBEAR JUNIORS PTE. LTD.,486046,1.3442,103.9651
PT9317,MAPLE BEAR HOLLAND PTE LTD,279050,1.3137,103.7832
PT9300,MAPLEBEAR HEADSTART PTE. LTD.,509397,1.3775,103.9584
PT9493,MAPLEBEAR LEARNING LADDER PTE LTD,598754,1.3399,103.7666
PT9428,MAPLEBEAR LEARNING GARDEN PTE LTD,138639,1.3053,103.7884
PT9747,MapleBear Jubilee Pte Ltd,128583,1.3064,103.767
NT0220,MY FIRST SKOOL,640518,1.3451,103.718
PT9280,MAPLEBEAR KIDS' KINGDOM PTE. LTD.,427664,1.3069,103.9046
PT8807,KIDSKINGDOM @ BEDOK RESERVOIR LLP,470742,1.3381,103.9221
RC1816,Kampung Siglap Mosque Kindergarten,449283,1.3099,103.9276
RC1879,St. James' Church Kindergarten (Harding),249537,1.3044,103.8122
PT9787,The Grange International Preschool,805946,1.3905,103.854
ST0325,PCF Sparkletots Preschool @ Cashew Blk 545 (EY),670545,1.3816,103.7635
PT8882,GENESIS CHILD CARE (TP) PTE. LTD.,520433,1.3591,103.9511
PT5950,ACEKIDZ @ COMMUNITY,129605,1.3027,103.7649
PT8712,EAGER BEAVER SCHOOLHOUSE 1 PTE. LTD.,760925,1.4275,103.8371
PT9686,Pearlbank Montessori Kindergarten,118643,1.2875,103.7798
WP0660,THE LITTLE SKOOL-HOUSE INTERNATIONAL PTE LTD,168582,1.2776,103.8355
RC1831,RAMAKRISHNA MISSION SARADA KINDERGARTEN,539784,1.3439,103.88
ST0339,PCF Sparkletots Preschool @ Woodlands Blk 652 (KN),730652,1.4379,103.7999
NT0583,MY FIRST SKOOL,460187,1.3308,103.9406
PT9379,CARPE DIEM CHILDCARE PTE LTD,449408,1.3019,103.906
NT0493,MY FIRST SKOOL,320111,1.3213,103.8583
PT8535,SCHOOLHOUSE BY THE BAY PTE. LTD.,438178,1.3005,103.8848
PT9123,JUS INFANTS @ EAST COAST PTE. LTD.,459067,1.3122,103.9226
RC1835,Soka Kindergarten,528888,1.3446,103.9434
PT9805,MULBERRY LEARNING @ BUKIT BATOK,659591,1.3441,103.7492
PT8597,MAPLEBEAR GRANDSTAND PTE LTD,287992,1.3338,103.7963
ST0112,PCF Sparkletots Preschool @ Nee Soon Link Blk 446 (CC),760446,1.423,103.8452
PT9671,House on the Hill Montessori Pre-school,118733,1.2915,103.7712
PT9393,MAPLEBEAR DEVELOPMENT CENTRE PTE LTD,757088,1.4441,103.8139
NT0506,MY FIRST SKOOL,190019,1.3037,103.8623
PT8983,MindChamps Performing Arts International PreSchool @ Upper Thomson Pte Ltd,787472,1.3836,103.826
PT9665,IMAN KINDERGARTEN (TENAGAVILLE) PTE LTD,410651,1.3322,103.9074
PT9690,IMAN KINDERGARTEN (CCK) PTE LTD,680530,1.3926,103.7418
RC1849,Bethesda (Pasir Ris) Kindergarten,518458,1.368,103.9645
ST0374,PCF Sparkletots Preschool @ Hong Kah North Blk 446 (DS),650446,1.3502,103.7391
PT9514,AGAPE LITTLE UNI. @ GAMBAS PTE LTD,757044,1.4431,103.8159
PT8794,AGAPE LITTLE UNI. @ CLEMENTI PTE. LTD.,120453,1.3119,103.766
PT8735,Agape Little Uni. @ Thomson Pte Ltd,573969,1.3586,103.8336
PT8691,AGAPE LITTLE UNI. @ CECIL PTE. LTD.,69533,1.281,103.8494
PT8553,AGAPE LITTLE UNI (KALLANG) PTE. LTD.,380005,1.3127,103.8725
PT8405,AGAPE LITTLE UNI. PTE. LTD.,149598,1.3031,103.7966
PT6080,AGAPE CHILD CARE(JW) PTE. LTD.,644274,1.3522,103.7044
PT5900,AGAPE CHILD CARE(SK) PTE. LTD.,542325,1.3929,103.8907
PT3050,AGAPE CHILD CARE(CCK) PTE. LTD.,680789,1.3959,103.7491
RC0680,Kidz Meadow Childcare and Development Centre (Eunos),400017,1.3234,103.9044
PT8497,STAR LEARNERS @ SEMBAWANG PTE. LTD.,758440,1.4394,103.8246
ST0160,PCF Sparkletots Preschool @ Sembawang West Blk 755 (CC),730755,1.4453,103.7933
PT9470,THE ORANGE ACADEMY (YISHUN) PTE LTD,768019,1.4279,103.8362
PT9776,Toa Payoh Methodist Preschool,319641,1.3341,103.8465
PT9649,Montessori Children's House,278685,1.3322,103.7907
RC1764,PLAYSCAPES@4PM,470606,1.3312,103.9138
RC1884,BETHESDA CHAPEL KINDERGARTEN,416913,1.3207,103.9102
RC1823,Glory Kindergarten,597611,1.3383,103.7755
PT8867,CARPE DIEM KIDZ PLAYHOUSE PTE. LTD.,759791,1.4562,103.8296
PT9657,CHENGZHU MANDARIN KINDERGARTEN,138639,1.3053,103.7884
PT9440,Sunflower Preschool @ Sembawang Pte. Ltd.,758407,1.4369999999999998,103.8259
PT9259,MINDCHAMPS PRESCHOOL@PUNGGOL NORTHSHORE PTE LTD,828670,1.415,103.899
PT9608,Primus Schoolhouse Alexandra by Invictus,159971,1.2873,103.8053
ST0007,PCF SPARKLETOTS PRESCHOOL @ KAMPONG CHAI CHEE BLK 131 (CC),460131,1.327,103.9358
PT9326,STAR LEARNERS @ GAMBAS PTE LTD,757087,1.4448,103.8128
NT0504,MY FIRST SKOOL,272018,1.3111,103.7919
RC1763,HAVEN SCHOOLHOUSE @ BAHAGIA,320029,1.3254,103.8587
PT7040,KIDDIE EXPLORERS PRESCHOOL,546654,1.3922,103.901
RC1761,HAVEN INFANT & TODDLER CENTRE,320114,1.3254,103.8575
ST0064,PCF SPARKLETOTS PRESCHOOL @ TOA PAYOH CENTRAL BLK 146A (CC),311146,1.3344,103.8454
PT9124,SUPERLAND PRE-SCHOOL (OUTRAM) PTE LTD,169043,1.2849,103.8353
ST0181,PCF SPARKLETOTS PRESCHOOL @ TOA PAYOH CENTRAL BLK 79B (CC),312079,1.3346,103.848
ST0225,PCF Sparkletots Preschool @ Toa Payoh Central Blk 157 (KN),310157,1.3322,103.8455
ST0153,PCF SPARKLETOTS PRESCHOOL @ TAMAN JURONG BLK 161 (CC),610161,1.3297,103.7215
ST0284,PCF Sparkletots Preschool @ Sengkang North Blk 292B (KN),542292,1.3954,103.8987
PT9049,LEAP KIDS PRESCHOOL @JALAN LANA PTE. LTD.,419037,1.3236,103.919
ST0337,PCF Sparkletots Preschool @ Woodgrove Blk 501 (KN),730501,1.4329,103.792
PT9509,HAPPY KIDS PRESCHOOL PTE. LTD.,388384,1.3159999999999998,103.8815
PT8798,CAELUM JUNIOR LLP,579882,1.3489,103.8447
ST0350,PCF Sparkletots Preschool @ Nee Soon East Blk 223 (KN),760223,1.4344,103.8356
ST0264,PCF Sparkletots Preschool @ Tampines North Blk 483 (KN),520483,1.3614,103.9527
PT9543,CAMBRIDGE @ MACPHERSON PTE LTD,348471,1.3279,103.8703
PT0890,PAT'S SCHOOLHOUSE PTE LTD,229541,1.3084,103.8298
ST0220,PCF Sparkletots Preschool @ Kampong Glam Blk 462 (DS),190462,1.3046,103.8608
PT9091,Sunflower Preschool @ Bukit Batok Pte Ltd,654288,1.3455,103.7589
RC1871,Centre of New Life Schoolhouse,649151,1.3494,103.6989
ST0333,PCF Sparkletots Preschool @ Yew Tee Blk 690D (KN),684690,1.4021,103.752
PT9721,Camelot at River Valley,239426,1.2919999999999998,103.8343
PT9726,Brainy Bunch Hougang Pte. Ltd.,530247,1.3592,103.8915
PT9722,Little Hands Montessori Kindergarten,238565,1.3015,103.8291
PT9629,Ideal Kidz Kindergarten,757087,1.4448,103.8128
PT9732,Milagros de Montessori School - Queens Close,140021,1.2933,103.7999
PT9195,SMI PRESCHOOL PTE. LTD.,600414,1.3201,103.7472
ST0026,PCF Sparkletots Preschool @ Nee Soon Central Blk 723 (CC),760723,1.426,103.8299
ST0010,PCF SPARKLETOTS PRESCHOOL @ CHUA CHU KANG BLK 3 (CC),680003,1.3825,103.7525
PT9539,GUG PRESCHOOL @ THOMSON,309458,1.3153,103.8456
PT9098,LITTLE FOOTPRINTS PRESCHOOL PTE. LTD.,575624,1.3564,103.8375
PT9803,MAPLEBEAR REDHILL,159837,1.2821,103.8181
PT9237,MAPLEBEAR PREP SCHOOL PTE LTD,669569,1.3569,103.7631
RC1887,TUNG LING KINDERGARTEN,449274,1.3045,103.9064
PT9424,BRIGHTON MONTESSORI CENTRES PTE LTD,248342,1.2941,103.827
PT9667,Clementi Woods Kindergarten LLP,127370,1.3028,103.7658
RC1803,Little Shepherds' Schoolhouse@Church of the Holy Trinity,529455,1.3489,103.9494
PT9527,BUCKET HOUSE PRESCHOOL,737856,1.4380000000000002,103.807
PT9572,HANIS Montessori Kindergarten ( Pasir Ris ),510775,1.3741,103.9371
RC1861,Hebron Christian Preschool,689284,1.3945,103.7441
PT8622,YUQUAN PRESCHOOL @GUILLEMARD,397999,1.3082,103.8808
PT9698,HEARTFIELD KINDERGARTEN PTE LTD,259810,1.3171,103.8341
PT8617,CHERIE HEARTS KIDZ CAMPUS PTE. LTD.,510625,1.3786,103.942
PT9434,BRIGHT PATH INCLUSIVE PRESCHOOL,286846,1.3426,103.7967
PT9276,LITTLE FOOTPRINTS PRESCHOOL PTE LTD,787149,1.3813,103.8324
PT5460,ETONHOUSE PRE-SCHOOL PTE LTD,287771,1.3312,103.7982
PT9590,WHITE LODGE WEST COAST PTE LTD,118141,1.2801,103.7863
RC1859,KHALSA KINDERGARTEN,209943,1.3142,103.8585
YW0070,YWCA OUTRAM CHILD DEVELOPMENT CENTRE,169051,1.2853,103.8354
RC1886,St. Hilda's Kindergarten,429740,1.3078,103.9008
YW0050,YWCA MARINE DRIVE CHILD DEVELOPMENT CENTRE,440066,1.3039,103.9097
YW0110,YWCA BUKIT GOMBAK CHILD DEVELOPMENT CENTRE,650531,1.3563,103.7504
YW0120,YWCA BISHAN CHILD DEVELOPMENT CENTRE,570185,1.3498,103.8525
YW0030,YWCA WEST COAST CHILD DEVELOPMENT CENTRE,120510,1.3108,103.7608
ST0226,PCF Sparkletots Preschool @ Toa Payoh West-Thomson Blk 205 (DS),310205,1.3422,103.8479
ST0372,PCF Sparkletots Preschool @ Toa Payoh West-Thomson Blk 131 (DS),310131,1.3379,103.8433
ST0221,PCF Sparkletots Preschool @ Moulmein-Cairnhill Blk 10 (DS),210010,1.3139,103.8522
ST0070,PCF SPARKLETOTS PRESCHOOL @ KRETA AYER-KIM SENG BLK 79 (DS),161079,1.2911,103.8287
PT7680,BUBBLESLAND PLAYHOUSE PTE LTD,540238,1.3904,103.8987
PT8915,BLEU CASTLE LLP,348469,1.3287,103.8703
ST0081,PCF Sparkletots Preschool @ Nee Soon South Blk 852 (EY),760852,1.4161,103.8367
ST0356,PCF Sparkletots Preschool @ Nee Soon South Blk 875 (DS),760875,1.4148,103.8363
ST0019,PCF SPARKLETOTS PRESCHOOL @ NEE SOON SOUTH BLK 781 (CC),760781,1.4222,103.8324
ST0157,PCF SPARKLETOTS PRESCHOOL @ ANG MO KIO-HOUGANG BLK 937 (CC),530937,1.3747,103.8793
ST0164,PCF Sparkletots Preschool @ Ang Mo Kio-Hougang Blk 642 (CC),530642,1.3717,103.8799
ST0274,PCF Sparkletots Preschool @ Ang Mo Kio-Hougang Blk 632 (DS),530632,1.3706,103.8806
ST0273,PCF Sparkletots Preschool @ Ang Mo Kio-Hougang Blk 535 (DS),530535,1.3764,103.8901
ST0272,PCF Sparkletots Preschool @ Ang Mo Kio-Hougang Blk 452 (DS),530452,1.3786,103.8963
ST0222,PCF Sparkletots Preschool @ Buona Vista Blk 4 (DS),271004,1.308,103.7956
PT9085,SAFARI HOUSE PRESCHOOL BT BATOK,659003,1.366,103.7483
YM0080,MY WORLD PRESCHOOL LTD.,760760,1.4258,103.8326
RC1680,KIDS' KINGDOM CHILD DEVELOPMENT AND LEARNING CENTRE,828850,1.4009,103.9096
PT5170,PAT'S SCHOOLHOUSE PTE LTD,277114,1.3182,103.7789
PT8683,CARPE DIEM JUNIORS PTE. LTD.,339411,1.3098,103.865
PT8707,PAT'S SCHOOLHOUSE PTE. LTD.,159921,1.2915,103.8198
PT9494,POSSO PRESCHOOL @ TAMPINES POINT PTE. LTD.,529483,1.3528,103.9425
PT8704,MINDCHAMPS PRESCHOOL @ JTC SUMMIT PTE. LTD.,609434,1.3313,103.7418
PT8491,INNATE MONTESSORI PTE. LTD.,598543,1.3441,103.7663
PT9490,SMALL WONDER PRESCHOOL,528548,1.3655,103.9338
SK0007,SKOOL4KIDZ CENTRE,821673,1.4067,103.9116
PT7190,HAPPY TOWN CHILD CARE CENTRE,387311,1.3157,103.8724
PT8859,SUNFLOWER PRESCHOOL @ PASIR RIS PTE. LTD.,510472,1.3742,103.9573
PT9685,Jenius Kindergarten,530915,1.3775,103.8836
NT0574,MY FIRST SKOOL,730676,1.4398,103.8007
YM0169,MY WORLD PRESCHOOL LTD.,763502,1.4173,103.8416
PT9727,Workplayz Montessori,101088,1.2773,103.8077
PT9626,Blue House International,287988,1.336,103.7963
PT9672,Singapore Hokkien Huay Kuan Preschool,466781,1.3157,103.9385
PT9411,SUNFLOWER PRESCHOOL @ YISHUN PTE LTD,760513,1.416,103.8443
PT9193,LES PETITS GAULOIS PTE. LTD.,459098,1.3129,103.9241
WP0730,LEARNING VISION @ WORK PTE. LTD.,138667,1.3045,103.7916
PT9528,CHERRYBROOK PRESCHOOL EAST COAST PTE. LTD.,457127,1.3141,103.9286
PT8922,SUNFLOWER PRESCHOOL @ BALESTIER PTE. LTD.,320080,1.3237,103.8557
RC1852,Bethesda Katong Kindergarten,456929,1.3168,103.9184
ST0188,PCF Sparkletots Preschool @ Punggol Shore (EY),828717,1.4019,103.9104
PT7710,BABYPLANET MONTESSORI PTE. LTD.,467961,1.3197,103.9521
NT0487,MY FIRST SKOOL,640409,1.3541,103.7253
PT9652,LITTLE ONES KINDERGARTEN,278886,1.314,103.78
PT9793,THE ELITE BABY,737854,1.435,103.8048
PT9799,Camelot Infant Preschool,359826,1.3426,103.8623
SK0025,SKOOL4KIDZ CENTRE,822409,1.4176,103.9027
PT9792,Worldly-Wise International Pre-School,329979,1.329,103.8485
PT9801,Camelot Learning Centre Pte Ltd,428918,1.3076,103.9071
PT9804,LITTLE GREENHOUSE @ ALJUNIED PTE. LTD.,389801,1.3139,103.8823
PT9795,MapleBear Early Learning Pte Ltd,387606,1.3148,103.8791
PT9177,MINDCHAMPS PRESCHOOL @ HOLLAND V PTE. LTD.,278967,1.3103,103.7954
PT9800,Alora Infant Care (Leng Kee) Pte Ltd,159049,1.2896,103.8147
PT9798,The Caterpillar Clubhouse,528584,1.3503,103.9269
RC1759,TZU CHI GREAT LOVE PRESCHOOL,760703,1.4296,103.8287
ST0344,PCF Sparkletots Preschool @ Admiralty Blk 687B (DS),732687,1.4419,103.8072
PT8417,PRESCHOOL FOR MULTIPLE INTELLIGENCES PTE. LTD.,307965,1.3168,103.8411
PT6950,RAFFLES HOUSE PRESCHOOL PTE LTD,309007,1.3193,103.8321
PT9313,LITTLE TREASURES CHILDCARE (MACPHERSON) PTE LTD,348475,1.3284,103.8713
PT1230,ALPHABET PLAYHOUSE CHILD CARE AND LEARNING CENTRE PTE LTD,239803,1.2982,103.8394
PT6690,SHEFFIELD KIDSWORLD (CCK) PTE. LTD.,680433,1.3849,103.7417
RC1848,Riverlife Kindegarten,509026,1.3783,103.9578
PT9134,MLC (PASIR RIS) PTE. LTD,510735,1.3796,103.9365
RC1040,KIDZ MEADOW CHILDCARE & DEVELOPMENT CENTRE,730874,1.4429,103.7895
RC0920,KIDZ MEADOW CHILDCARE & DEVELOPMENT CENTRE,760173,1.4371,103.8311
RC1766,KIDZ MEADOW CHILDCARE & DEVELOPMENT CENTRE,643663,1.338,103.7024
NT0548,MY FIRST SKOOL,310236,1.3403,103.8521
NT0450,MY FIRST SKOOL,543308,1.3892,103.8868
PT5650,MODERN MONTESSORI CHILD CARE & DEVELOPMENT CENTRE PTE LTD,544914,1.3549,103.878
PT8874,AMAZING STAR MONTESSORI HOUSE (CCK),680511,1.3893,103.7409
PT9602,MASTERMINDS MONTESSORI KINDERGARTEN,267214,1.3241,103.7968
PT5550,Ace @ Work Childcare Pte Ltd (CCK 757),680757,1.3928,103.7459
PT9308,CHILDREN'S VINEYARD PRESCHOOL PTE. LTD,577177,1.3488,103.8409
NT0544,MY FIRST SKOOL,160137,1.2781,103.827
RC1864,MARIS STELLA KINDERGARTEN,258851,1.3089,103.8083
PT9495,NAFA ARTS PRESCHOOL,189655,1.2998,103.8514
NT0483,MY FIRST SKOOL,542302,1.3879,103.8907
PT9520,MAPLE BEAR EDUCARE PTE. LTD.,329022,1.3251,103.8652
PT6360,MAPLE BEAR EDUCARE PTE LTD,118599,1.2803,103.7847
PT9641,PUTRA-PUTRI KINDERGARTEN,730408,1.4289,103.7724
PW0080,PCS BUKIT BATOK CENTRE,650116,1.3496,103.7464
PT8688,LITTLE FOOTPRINTS PRESCHOOL PTE. LTD.,730551,1.4331,103.7952
PT9270,Smiling Star Jurong West Pte Ltd,640635,1.3428,103.6984
PT8552,KEY ELEMENTARY EDUHOUSE PTE LTD,640262,1.3448,103.7073
ST0204,PCF SPARKLETOTS PRESCHOOL @ JURONG SPRING BLK 515 (CC),640515,1.3464,103.7208
RC1865,JAMIYAH KINDERGARTEN,399006,1.3104,103.8788
RC1821,Darul Ghufran Mosque Kindergarten,529651,1.3553,103.9399
PT9730,Jessin Kindergarten,312085,1.3363,103.8484
PT9678,LITTLE OAKS MONTESSORI KINDERGARTEN,259226,1.3197,103.8118
PT9429,SUPERLAND PRE-SCHOOL (PL) PTE. LTD.,408600,1.319,103.8948
PT8953,BRILLIANT TOTS INFANT AND CHILDCARE,809045,1.3835,103.8755
PT8855,MY KIDDIE KLUBHOUSE PTE LTD,418106,1.3303,103.9078
PT4520,TOTS TOWN PRESCHOOL @ SEMBAWANG,750480,1.4521,103.8151
KM0027,MOE KINDERGARTEN @ Naval Base,769028,1.4163,103.8388
KM0010,MOE KINDERGARTEN @ HUAMIN,768857,1.4269999999999998,103.8442
KM0013,MOE KINDERGARTEN @ RIVERSIDE,737803,1.4469999999999998,103.8018
KM0035,MOE Kindergarten @ Cedar,349700,1.3356,103.8756
KM0023,MOE KINDERGARTEN @ FIRST TOA PAYOH,319252,1.3403,103.8555
KM0033,MOE Kindergarten @ Tampines Primary,529426,1.3501,103.9438
KM0005,MOE KINDERGARTEN @ TAMPINES,522489,1.3618,103.9565
KM0028,MOE Kindergarten @ North Vista,544974,1.3829,103.8959
KM0020,MOE Kindergarten @ Fernvale,797701,1.3901,103.8743
KM0019,MOE KINDERGARTEN @ ANCHOR GREEN,544969,1.3904,103.8872
KM0007,MOE KINDERGARTEN @ SENGKANG GREEN,797636,1.3928,103.8751
KM0021,MOE KINDERGARTEN @ WELLINGTON,757702,1.4519,103.8223
KM0012,MOE KINDERGARTEN @ NORTHOAKS,757622,1.4567,103.8138
KM0031,MOE Kindergarten @ Greendale,828848,1.3965,103.9124
KM0030,MOE Kindergarten @ Northshore,828671,1.4181,103.9044
KM0026,MOE KINDERGARTEN @ Horizon,828819,1.3998,103.9132
KM0018,MOE KINDERGARTEN @ WATERWAY,828802,1.3988,103.9186
KM0017,MOE KINDERGARTEN @ PUNGGOL COVE,828674,1.4116,103.8988
KM0016,MOE KINDERGARTEN @ OASIS,828716,1.4045,103.9111
KM0006,MOE KINDERGARTEN @ PUNGGOL GREEN,828772,1.4017,103.8987
KM0004,MOE KINDERGARTEN @ PUNGGOL VIEW,828845,1.4052,103.9052
KM0034,MOE Kindergarten @ Meridian,518798,1.3755,103.9349
KM0003,MOE KINDERGARTEN @ FARRER PARK,217567,1.3124,103.8508
KM0015,MOE KINDERGARTEN @ WESTWOOD,649188,1.3472,103.7005
KM0022,MOE KINDERGARTEN @ PEI TONG,129857,1.3164,103.7675
KM0024,MOE Kindergarten @ Kranji,689189,1.3939,103.7474
KM0037,MOE Kindergarten @ West View,677742,1.3837,103.7603
KM0032,MOE Kindergarten @ Zhenghua,679002,1.3795,103.7693
KM0008,MOE KINDERGARTEN @ WEST SPRING,679946,1.3892,103.7662
KM0001,MOE KINDERGARTEN @ BLANGAH RISE,109100,1.2761,103.8086
KM0002,MOE KINDERGARTEN @ DAZHONG,659441,1.3591,103.7483
KM0036,MOE Kindergarten @ Mayflower,569948,1.3761,103.8358
PT8476,PRE-SCHOOL BY-THE-PARK PTE. LTD.,288453,1.3267,103.8107
RC1820,EN-NAEEM MOSQUE KINDERGARTEN,535136,1.3609,103.8926
PT8516,LEARNING VISION @ WORK PTE. LTD.,69537,1.2797,103.8486
PT7690,SMILING STAR SINGAPORE PTE. LTD,678295,1.3764,103.7707
PT9427,SMILING STAR EDUHUB PTE LTD,757089,1.4445,103.8138
SK0001,SKOOL4KIDZ CENTRE,734782,1.4482,103.803
PT9285,THE ORANGE ACADEMY PTE. LTD.,168730,1.2863,103.8281
ST0138,PCF SPARKLETOTS PRESCHOOL @ CLEMENTI BLK 420A (CC),121420,1.3097,103.7687
ST0073,PCF SPARKLETOTS PRESCHOOL @ WEST COAST BLK 611 (CC),120611,1.3037,103.7695
ST0213,PCF Sparkletots Preschool @ West Coast Blk 728 (KN),120728,1.3053,103.7638
ST0212,PCF Sparkletots Preschool @ Clementi Blk 330 (DS),120330,1.3137,103.7678
ST0199,PCF SPARKLETOTS PRESCHOOL @ CLEMENTI BLK 462A (EY),121462,1.3115,103.7656
PT9483,JUST KIDS @ ST GEORGE'S PTE LTD,328069,1.324,103.8635
ST0027,3-IN-1 FAMILY CENTRE,520205,1.3517,103.952
ST0299,PCF Sparkletots Preschool @ Yuhua Blk 317 (KN),600317,1.3466,103.7311
ST0298,PCF Sparkletots Preschool @ Yuhua Blk 251 (KN),600251,1.3432,103.7397
ST0051,PCF SPARKLETOTS PRESCHOOL @ YUHUA BLK 264 (CC),600264,1.3438,103.7416
ST0050,PCF SPARKLETOTS PRESCHOOL @ YUHUA BLK 233 (CC),600233,1.3404,103.7409
ST0061,PCF SPARKLETOTS PRESCHOOL @ YUHUA BLK 108 (CC),600108,1.3383,103.7371
NT0516,MY FIRST SKOOL,649882,1.3483,103.7114
NT0520,MY FIRST SKOOL,640613,1.3398,103.7007
NT0539,MY FIRST SKOOL,640459,1.3503,103.7209
PT9187,LITTLE EXPLORERS COVE,640482,1.3472,103.7248
RC1640,KINDERYEARS CHILDCARE & DEVELOPMENT CENTRE,680679,1.4026,103.7446
RC1862,Bukit Panjang Methodist Church Kindergarten,678091,1.3611,103.7675
RC1840,Paya Lebar Methodist Church Covenant Kindergarten,549954,1.3526,103.8757
RC1839,PENTECOST METHODIST CHURCH KINDERGARTEN,519420,1.3711,103.9573
PT8653,MINDCHAMPS PRESCHOOL @ CITY SQUARE PTE. LTD,208539,1.3114,103.8566
PT8340,ENFANT EDUCARE PTE LTD,209062,1.3087,103.8626
PT8969,LAVENDER MEADOWS ACADEMY PTE. LTD.,200633,1.3057,103.8549
PT9230,LEAP SCHOOLHOUSE @ CITY SQUARE MALL PTE LTD,208539,1.3114,103.8566
PT9773,Foochow Methodist Preschool,218577,1.3089,103.8517
NT0485,MY FIRST SKOOL,550219,1.3584,103.8722
PT9674,AL-NASRY@JURONG WEST KINDERGARTEN,640743,1.3473,103.6992
ST0215,PCF Sparkletots Preschool @ Buona Vista Blk 54 (DS),142054,1.3016,103.7968
ST0072,PCF SPARKLETOTS PRESCHOOL @ CHONG PANG BLK 115B (CC),762115,1.4334,103.8271
PT9592,WHITE LODGE BUKIT TIMAH PTE LTD,288712,1.3324,103.8017
PT8908,MINDCHAMPS PRESCHOOL @ SERANGOON PTE. LIMITED,556741,1.352,103.8607
PT9759,Carpe Diem Schoolhouse Pte Ltd,540353,1.3932,103.8857
RC1846,Little Shepherds' Schoolhouse@Church of the Nativity,538791,1.3741,103.8977
NT0482,MY FIRST SKOOL,120375,1.3185,103.7667
PT8364,SUNFLOWER KINDERHUB PTE LTD,806787,1.3806,103.8674
SK0008,SKOOL4KIDZ CENTRE,542336,1.3975,103.8891
PT9486,RAFFLES KIDZ @ JURONG WEST PTE LTD,618640,1.3259,103.7245
RC1898,Tzu Chi Great Love PreSchool (Toa Payoh),319642,1.3353,103.845
RC1560,LIFE CHILD CARE CENTRE,188659,1.3021,103.852
PT9760,Mindchamps Preschool @ Temasek Club Pte Ltd,588406,1.3465,103.7809
PT8730,MINDCHAMPS PRESCHOOL @ PARAGON PTE. LIMITED,238859,1.3039,103.8355
PT9419,MINDCHAMPS PRESCHOOL@RAFFLES TOWN CLUB PTE.LTD,297753,1.3219,103.825
PT8819,AMERICARE CHILD DEVELOPMENT CENTRE,389496,1.314,103.8852
PT9179,SAFARI HOUSE BABIES & TODDLERS,138664,1.3038,103.7899
PT5280,KIDDIWINKIE SCHOOLHOUSE PTE LTD,229492,1.3104,103.8399
PT9109,LIGHTHOUSE EDUCARE PTE LTD,737854,1.435,103.8048
PT8547,HAPPY FAMILY EDU-HUB PTE. LTD.,524493,1.3626,103.9519
NT0505,MY FIRST SKOOL,680208,1.3815,103.7482
SK0013,SKOOL4KIDZ CENTRE,523878,1.3513,103.9294
PT9287,THE LITTLE SKOOL- HOUSE INTERNATIONAL PTE LTD,519599,1.3772,103.9552
PT9757,Safari House Preschool Khatib,767944,1.4148,103.8311
PT9609,Mahad Al Nasry @ Sengkang,546646,1.3917,103.9011
PT9492,INJENIUS PRESCHOOL PTE. LTD.,549783,1.3651,103.8827
PT7300,CUDDLE KIDS PLAYHOUSE PTE. LTD.,730539,1.4291,103.7923
PT9116,STAR LEARNERS @ WOODLANDS PTE LTD,737853,1.4348,103.8028
PT9711,Raffles Montessori Kindergarten (Aljunied),388375,1.3152,103.8814
PT9704,DYNAMIC WORLD MONTESSORI PTE LTD,428951,1.3082,103.9093
PT9780,Adventure Tree Preschool,439289,1.2985,103.8948
PT9030,LEAP KIDS PRESCHOOL @ WOODLANDS PTE LTD,737853,1.4348,103.8028
PT9076,LEARNING KIDZ ACADEMY PTE. LTD.,529541,1.3532,103.9427
PT7890,IMAN CHILDCARE PTE. LTD.,510148,1.3623,103.9621
PT9119,SUNSHINE KIDS CARE CENTRE @ TAMPINES PTE. LTD.,521519,1.3573,103.9404
RC1885,Far Eastern Kindergarten,309063,1.3158,103.838
PT9062,Nurtured Nest Bukit Timah Pte. Ltd.,289627,1.3308,103.7994
PT9688,CAPELLA PRESCHOOL PTE. LTD.,387387,1.319,103.8808
PW0090,PCS TAMPINES CENTRE,520432,1.3589,103.9505
RC1875,Jurong Calvary Kindergarten,618720,1.3332,103.7235
RC1140,YMCA CHILD DEVELOPMENT CENTRE,730171,1.4340000000000002,103.7765
ST0265,PCF Sparkletots Preschool @ Tampines Central Blk 725 (DS),520725,1.357,103.9353
RC0600,THE MORAL CHILDCARE CENTRE,650415,1.3633,103.7466
PT9789,Leeds Montessori,546663,1.3928,103.9009
PT9604,HANIS Montessori Kindergarten (Enterprise One),415934,1.3328,103.9026
PT9477,HOUSE ON THE HILL PTE. LTD.,259887,1.3151,103.834
PT9071,KIDDIWINKIE SCHOOLHOUSE @ NOVENA PTE. LTD.,307903,1.3212,103.8424
PT9693,AGAPE MONTESSORI HOUSE KINDERGARTEN,574756,1.3784,103.8322
PT9772,The Little Skool-House At Ngee Ann Polytechnic,599489,1.3328,103.7746
PT9487,MAPLEBEAR DISCOVERY LAND PTE. LTD.,578527,1.3523,103.8459
RC1530,IYAD PERDAUS CHILD DEVELOPMENT CENTRE,680418,1.3824,103.7414
PT9171,First Steps Preschool @ Admiralty,730701,1.4418,103.7961
PT9003,CAMBRIDGE CDC @ YIO CHU KANG PTE. LTD.,806011,1.39,103.8606
PT8560,SMART KIDS EDUCARE LLP,809173,1.3819,103.8755
PT9004,RAFFLES KIDZ @ YIO CHU KANG PTE. LTD.,806014,1.3902,103.8601
PT9150,SDM-MORIAH PRESCHOOL (GREENWICH) PTE LTD,807011,1.3874,103.8692
PT9219,First Steps Preschool @ Sengkang,805960,1.3872,103.8704
PT8967,IKIDS WORLD PTE. LTD.,807381,1.3845,103.8653
PT9278,KIDDIWINKIE SCHOOLHOUSE@GRANDSTAND PTE LTD,809741,1.3908,103.8517
PT0510,KINDERLAND PRESCHOOL,805946,1.3905,103.854
PT9728,MapleBear Yio Chu Kang,805939,1.3891,103.8639
PT8949,Starshine Montessori Childcare Center,669173,1.3537,103.7594
PT9362,SCHOOLHOUSE BY THE BAY @ HILLVIEW,667970,1.362,103.7643
PT8731,RAFFLES KIDZ @ BUKIT PANJANG PTE. LTD.,669682,1.3784,103.7598
PT4910,MONTESSORI @ GRACELAND PTE LTD,668111,1.3763,103.7583
PT8399,AAYTOZEE @ HILLVIEW PTE LTD,668947,1.3588,103.7619
PT9406,AAYTOZEE LEARNING COVE PTE LTD,669915,1.3575,103.7601
PT8689,LOVESHINE MONTESSORI SCHOOLHOUSE PTE. LTD.,669898,1.3579,103.7599
PT9121,LITTLE KINDER MONTESSORI LLP,669949,1.3575,103.7585
WP0210,LEARNING VISION @ WORK PTE LTD,637034,1.3529,103.6892
PT9510,SUNFLOWER @ YUNNAN PTE LTD,638310,1.3394,103.692
PT8642,SDM - ICHIBAN PRESCHOOL PTE LTD,638350,1.3375,103.6925
PT9453,MAPLEBEAR ELITE PRESCHOOL PTE LTD,638270,1.3376,103.6906
PT9632,Summer Montessori,618593,1.327,103.7247
PT9199,ACEKIDZ @ SG PTE. LTD.,611175,1.332,103.7215
PT9256,ACEKIDZ @ LAKEVISTA PTE. LTD.,610138,1.3279,103.7234
PT9325,STAR LEARNERS @ YUNG HO PTE LTD,618593,1.327,103.7247
PT8791,PAT'S SCHOOLHOUSE PTE. LTD.,618593,1.327,103.7247
NT0518,MY FIRST SKOOL,618616,1.3358,103.7217
NT0060,MY FIRST SKOOL,610333,1.3394,103.7234
PT8989,IMAN CHILDCARE (JURONG) PTE. LTD.,610399,1.3349,103.7204
RC0430,Little Seeds Preschool,350105,1.3344,103.8687
PT1090,KINDERCAMPUS (S) PTE LTD,359756,1.3491,103.8656
RC0030,BETHEL DAY CARE CENTRE,359110,1.3462,103.8689
PT5250,KINDERLAND PRESCHOOL,730900,1.4351,103.7868
PT9310,CREATIVELAND CHILDCARE AND DEVELOPMENT CENTRE@ADMIRALTY PTE LTD,730715,1.442,103.7994
RC1767,NEW LIFE COMMUNITY SERVICES,730580,1.4306,103.7963
NT0471,MY FIRST SKOOL,733688,1.4433,103.8073
PW0040,PCS WOODLANDS CENTRE,730023,1.4415,103.7733
RC1716,GLOBAL CHILD DEVELOPMENT CENTRE,730620,1.4334,103.7989
EB0015,E-BRIDGE PRE-SCHOOL PTE LTD,730573,1.4311,103.7985
SK0002,SKOOL4KIDZ CENTRE,730024,1.4415,103.7721
PT9216,JUST KIDS @ WOODLANDS PTE. LTD.,730769,1.4473,103.799
PT4770,LEARNING VISION @ WORK PTE. LTD.,730548,1.4307,103.7939
PT8505,KINDERCARE CENTRE LLP,731502,1.4333,103.7913
PT3210,BRIGHT CHILD EDUCARE CENTRE,730128,1.4375,103.7789
PT9349,MAPLEBEAR EXPLORERS PTE. LTD.,787502,1.3871,103.8292
PT9705,MINDCHAMPS PRESCHOOL@THE BROOKS II PTE LIMITED,786015,1.4039,103.8188
PT8676,CARPE DIEM @ HILLTOP PTE. LTD.,787087,1.3786,103.8303
PT9000,SAFARI HOUSE PRESCHOOL THOMSON,787494,1.3836,103.8284
PT9059,CHERIE HEARTS @ UPPER THOMSON PTE. LTD.,787623,1.3865,103.8267
PT9222,SUNNY BUNNY MONTESSORI PTE. LTD.,787103,1.385,103.8257
PT9644,SAFARI HOUSE PRESCHOOL SENGKANG,797637,1.3964,103.8751
NT0566,MY FIRST SKOOL,797536,1.3951,103.8787
RC1769,WHOLE CHILD NURTURE CENTRE,793430,1.3946,103.8783
PT9240,GREENLAND CHILDCARE @ FERNVALE PTE LTD,793472,1.3963,103.8812
EB0012,E-BRIDGE PRE-SCHOOL PTE LTD,791417,1.3916,103.8807
PT9372,CHATSWORTH PRESCHOOL,799752,1.4031,103.8709
PT9131,ICHIBAN MONTESSORI CHILDCARE CENTRE (FERNVALE) PTE. LTD.,790439,1.3922,103.8776
PT8160,LEARNING HUB@GRACELAND PTE. LTD.,588177,1.3424,103.7764
PT9180,SAFARI HOUSE PRESCHOOL BT TIMAH,588179,1.3433,103.7759
PT9634,Mosaic Preschool,589472,1.3367,103.7838
PT9786,SUPERLAND PRE-SCHOOL (BT2) PTE LTD,589622,1.3333,103.7888
PT9485,HI-5 HOL PRESCHOOL @ BUKIT TIMAH PTE LTD,588534,1.3405,103.7824
RC1892,Arise Preschool,589240,1.3446,103.7757
PT9114,ETONHOUSE BILINGUAL PRE-SCHOOL PTE. LTD.,588184,1.3454,103.773
PT8531,PRE-SCHOOL BY-THE-PARK (DUNEARN) PTE LTD,589445,1.3348,103.7881
PT9368,SUPERLAND PRE-SCHOOL (100 AM),79027,1.2748,103.8435
PT9525,MY LEARNING HAVEN (SUNTEC),38983,1.2951,103.8585
PT8994,MindChamps PreSchool @ Marina Square,39594,1.2913,103.8575
PT8120,JOSIAH MONTESSORI : CITY CHILDCARE CENTRE,38983,1.2951,103.8585
RC1811,Mujahidin Mosque Kindergarten,148952,1.2981,103.801
PT9791,MapleBear Joyful Woods PreSchool Pte Ltd,737853,1.4348,103.8028
RC0900,HAVEN SCHOOLHOUSE @ BEDOK NORTH,460093,1.3329,103.9413
PT8977,SPRING BRAINY KIDZ (POTONG PASIR) PTE. LTD.,350113,1.3361,103.8636
PT5010,IDEAL MONTESSORI PTE LTD,357741,1.3392,103.8696
NT0530,MY FIRST SKOOL,350134,1.3345,103.8663
PT9170,GLOBAL TOTS @ BRADDELL PTE. LTD.,358421,1.3448,103.862
PT8790,NOBLELAND ARTS N LEARNING PLACE @ BISHAN PTE. LTD.,576101,1.3529,103.8424
PT7650,GREENERY CHILDCARE CENTRE,680483,1.3758,103.7378
PT9697,Dayspring Kindergarten Private Limited,828670,1.415,103.899
PT8376,SUNFLOWER BABY HOUSE PTE. LTD.,287994,1.3387,103.7933
PT8984,CARPE DIEM SCHOOLHOUSE PTE. LTD.,590005,1.3382,103.7745
PT9251,MAPLE BEAR PRESCHOOL PTE. LTD.,169634,1.2875,103.8364
RC1903,Little Seeds Preschool,521159,1.351,103.9461
RC1902,Little Seeds Preschool,670402,1.3803,103.7681
RC1901,Little Seeds Preschool,650247,1.3499,103.757
RC1897,Little Seeds Preschool,347592,1.3323,103.8742
PT8623,THE LITTLE SKOOL-HOUSE INTERNATIONAL PTE LTD,398007,1.3075,103.8813
RC1896,Little Seeds Preschool,98717,1.2696,103.8145
RC1889,Little Seeds Preschool @ PPHBC,118827,1.2804,103.7857
RC1400,Little Seeds Preschool,520727,1.3563,103.9355
RC0610,Little Seeds Preschool,760662,1.4205,103.8406
RC0500,Little Seeds Preschool,670439,1.383,103.7705
RC0470,Little Seeds Preschool,650211,1.346,103.7504
RC0090,Little Seeds Preschool,640511,1.3478,103.7196
RC0660,HAVEN SchoolHouse @ Bukit Purmei,90102,1.2718,103.8266
NT0020,MY FIRST SKOOL,120428,1.3125,103.7633
PT9322,STAR LEARNERS @ JURONG WEST PTE LTD,640862,1.3501,103.6967
PT9330,QUALITY CENTRES (PTE. LTD.),49710,1.2821,103.8495
PT4700,SDM CHILDCARE CENTRE (JURONG EAST) PTE LTD,608838,1.3323,103.7484
PT9355,ILHAM CHILD CARE (EAST) PTE LTD,408555,1.3317,103.897
PT9755,MAPLEBEAR THE ALPHA,117684,1.2885,103.7797
PT8375,MLC (BEDOK RESERVOIR) PTE. LTD.,470718,1.3366,103.9257
ST0023,PCF SPARKLETOTS PRESCHOOL @ QUEENSTOWN BLK 78B (CC),143078,1.2941,103.8095
PT7810,NUTURE TOTS PRE-SCHOOL PTE. LTD.,519923,1.3806,103.9477
PT9758,MindChamps PreSchool @ Sentosa,98138,1.2569,103.8206
ST0031,PCF SPARKLETOTS PRESCHOOL @ TELOK BLANGAH BLK 44 (CC),100044,1.2714,103.8107
PT9273,Little Footprints Preschool Group Pte Ltd,520372,1.3564,103.9581
PT8782,CHERIE HEARTS NURTURELOFT PTE. LTD.,573960,1.3591,103.834
PT9606,ZULFA KINDERGARTEN @ PASIR RIS PTE LTD,510626,1.3798,103.9409
PT9607,ZULFA KINDERGARTEN @ CHOA CHU KANG PTE LTD,680445,1.3818,103.7367
RC1867,Little Shepherds' Schoolhouse@Church of St Francis Xavier,558758,1.3584,103.8636
ST0227,PCF Sparkletots Preschool @ Whampoa Blk 85 (DS),320085,1.3228,103.8564
PT7380,BRIGHT KIDS SCHOOL HOUSE PTE LTD,824175,1.3985,103.9078
PT8406,KIDDIWINKIE SCHOOLHOUSE @ UPPER BUKIT TIMAH,597925,1.3425,103.7739
PT9661,P&J Montessori Kindergarten Pte Ltd,574141,1.3573,103.8262
PT9246,LITTLE PRESCHOOL PTE. LTD,513530,1.3716,103.9501
ST0228,PCF Sparkletots Preschool @ Whampoa Blk 112 (KN),321112,1.3259999999999998,103.8568
PT9305,LITTLE PADDINGTON PRESCHOOL TANGLIN PTE LTD,287985,1.3355,103.7926
PT8494,CITIKIDS EDVENTURE PTE. LTD.,670450,1.3845,103.7724
PT8974,LITTLE GREENHOUSE @ TAMPINES PTE. LTD.,520707,1.3576,103.9369
PT8877,WHARTON PRESCHOOL PTE. LTD.,554360,1.376,103.8706
PT8379,RAFFLES HOUSE PRESCHOOL (ROBIN CLOSE),258297,1.3188,103.8268
PT8587,PICKET FENCE @ TAMPINES PTE. LTD.,520817,1.3476,103.9367
PT9500,ODYSSEY THE GLOBAL PRESCHOOL PTE. LTD.,239128,1.2978,103.8392
PT9536,MAPLE BEAR LEARNING PLACE PTE. LTD.,128020,1.3164,103.7575
PT9261,SUNFLOWER KIDDY STAR PRESCHOOL PTE LTD,520896,1.3483,103.9325
ST0229,PCF Sparkletots Preschool @ Whampoa Blk 106 (DS),322106,1.321,103.861
NT0479,MY FIRST SKOOL (DS),730742,1.4439,103.796
PT9785,ELITE KIDZ PRESCHOOL,609342,1.3213,103.7476
PT8359,BAMBINI CHILDCARE LLP,598523,1.3429,103.7672
RC1893,Hope Community Kindergarten (Choa Chu Kang),689907,1.3778,103.7403
ST0180,PCF SPARKLETOTS PRESCHOOL @ LIMBANG BLK 786 (EY),680786,1.3951,103.7483
PT9079,LITTLE SAGE INTERNATIONAL PRESCHOOL,348796,1.3328,103.8761
PT9239,SMI BERRIIS PRESCHOOL PTE. LTD.,680620,1.3997,103.7471
ST0124,PCF SPARKLETOTS PRESCHOOL @ ZHENGHUA BLK 632A (CC),671632,1.3854,103.758
PT7320,EUREKA SCHOOLHOUSE PTE LTD,129423,1.3197,103.7562
ST0177,PCF Sparkletots Preschool @ Kebun Baru Blk 260B (CC),562260,1.3689,103.834
NT0546,MY FIRST SKOOL,550264,1.3524,103.8721
PT9129,GLOBALKIDS EDU PTE LTD,554913,1.3756,103.872
RC1857,Marymount Preschool,319253,1.3406,103.857
RC1824,The Ascension Kindergarten,359338,1.3302,103.8665
ST0194,PCF Sparkletots Preschool @ Sembawang Central Blk 503C (EY),753503,1.4505,103.8229
ST0319,PCF Sparkletots Preschool @ Hong Kah North Blk 338 (KN),650338,1.3635,103.7508
PT8200,CARPE DIEM KIDSWORLD PTE. LTD.,640739,1.3461,103.7
PT9748,AKARUI EARLY YEARS LEARNING CENTRE PTE LTD,310490,1.3326,103.8483
PT9782,ARTEMIS PRESKOOL @ TAMPINES,521866,1.3554,103.9344
PT9533,Deerland Pre - School Pte. Ltd.,310199,1.342,103.8506
ST0179,PCF SPARKLETOTS PRESCHOOL @ CHUA CHU KANG BLK 123 (CC),680123,1.3792,103.7495
ST0058,PCF SPARKLETOTS PRESCHOOL @ CANBERRA BLK 337 (CC),750337,1.4462,103.8157
ST0111,PCF Sparkletots Preschool @ Ayer Rajah-Gek Poh Blk 275A (CC),641275,1.3524,103.7022
ST0297,PCF Sparkletots Preschool @ Ayer Rajah-Gek Poh Blk 48 (DS),600048,1.3205,103.74
PT9331,ETONHOUSE PRE-SCHOOL PTE LTD,269782,1.3282,103.8021
PT6720,Little Sage International Preschool@Bishan,576013,1.3546,103.8427
PT9449,LEARNING VISION @ WORK PTE LTD,544835,1.3959,103.8922
ST0371,PCF Sparkletots Preschool @ Nee Soon Central Blk 671 (DS),760671,1.4192,103.8416
RC1837,TRUE WAY PRESBYTERIAN KINDERGARTEN,148947,1.2937,103.8057
ST0198,PCF SPARKLETOTS PRESCHOOL @ SENGKANG WEST BLK 303A (EY),541303,1.3871,103.8908
WP0739,THE LITTLE SKOOL-HOUSE INTERNATIONAL PTE LTD,298136,1.3337,103.8395
PT9478,KIDSCAMPUS WEST COAST PTE LTD,120509,1.3112,103.761
PT8609,MINDCHAMPS PRESCHOOL @ TAMPINES CENTRAL 6 PTE. LTD.,529483,1.3528,103.9425
ST0241,PCF Sparkletots Preschool @ Kembangan-Chai Chee Blk 59 (KN),460059,1.3249,103.9202
ST0266,PCF Sparkletots Preschool @ Tampines Central Blk 856 (KN),520856,1.3534,103.9366
PT8598,MINDCHAMPS PRESCHOOL @ CHANGI BUSINESS PARK PTE. LTD.,486066,1.3348,103.9653
ST0311,PCF Sparkletots Preschool @ Pioneer Blk 654B (KN),642654,1.3362,103.6979
RC1894,Hope Community Kindergarten Tampines,529151,1.3613,103.9522
PT9432,MAPLEBEAR LEARNING CENTRE PTE LTD,546934,1.3639,103.8761
PT9334,BRILLIANT TOTS PTE. LTD.,640610,1.3383,103.7009
PT9771,Al-Amin Preschool,520492,1.3630000000000002,103.9535
PT9105,Sunflower Preschool @ Rivervale,540145,1.3899,103.9061
ST0055,PCF SPARKLETOTS PRESCHOOL @ KEBUN BARU BLK 172 (CC),560172,1.3747,103.8365
PT8453,KIDZPRO LLP,520939,1.3482,103.9412
PT9579,Lodestar Montessori Preschool Pte Ltd,537319,1.3606,103.8904
PT8639,CAMBRIDGE CDC @ SENGKANG PTE. LTD.,548601,1.3904,103.9044
ST0147,PCF SPARKLETOTS PRESCHOOL @ TECK GHEE BLK 415 (CC),560415,1.3645,103.8537
ST0288,PCF Sparkletots Preschool @ Teck Ghee Blk 235 (KN),560235,1.3668,103.8365
ST0341,PCF Sparkletots Preschool @ Sembawang West Blk 789 (KN),730789,1.4434,103.8024
PT9473,PEGASUS INTERNATIONAL PRESCHOOL PTE LTD,219248,1.3126,103.8474
ST0382,PCF Sparkletots Preschool @ Radin Mas,159563,1.2841,103.8193
ST0202,PCF Sparkletots Preschool @ Toa Payoh East Blk 6 (EY),310006,1.3386,103.8572
NT0498,MY FIRST SKOOL,550306,1.3542,103.8669
PT9378,MINDCHAMPS PRESCHOOL @ CONCORDE HOTEL (ORCHARD) PTE LTD,238840,1.3006,103.8422
RC1809,Al-Istighfar Mosque Kindergarten,518239,1.371,103.9641
PT8393,RAINBOW COVE EDUCATIONAL SERVICES PTE. LTD.,466451,1.3149,103.9377
PT9476,SAIL PLAYHOUSE PTE LTD,757046,1.4425,103.8172
ST0169,PCF SPARKLETOTS PRESCHOOL @ MARSILING (CC),738621,1.4358,103.7806
ST0044,PCF SPARKLETOTS PRESCHOOL @ KEBUN BARU BLK 180 (CC),560180,1.3767,103.8384
ST0096,PCF SPARKLETOTS PRESCHOOL @ WOODLANDS BLK 824 (CC),730824,1.4392,103.7887
PT9681,LITTLE WOODS MONTESSORI PRE-SCHOOL PTE LTD,309166,1.3189,103.8384
ST0100,PCF SPARKLETOTS PRESCHOOL @ WOODLANDS BLK 801 (CC),730801,1.4417,103.786
NT0545,MY FIRST SKOOL,608532,1.3341,103.7427
RC1812,Al-Khair Mosque Kindergarten,688847,1.3826,103.75
PT8607,MINDCHAMPS PRESCHOOL @ TANGLIN PTE LTD,247972,1.2973,103.8149
PT9457,LITTLE PADDINGTON PRESCHOOL TANGLIN PARK PTE LTD,247977,1.298,103.8152
PT9248,SAFARI HOUSE PRESCHOOL RIVER VALLEY,248279,1.2961,103.8307
PT9446,WCHESTER PRESCHOOLERS PTE LTD,248922,1.2962,103.8155
PT1200,SAM'S EARLY LEARNING CENTRE PTE LTD,249196,1.2954,103.828
PW0110,PCS HOLLAND VILLAGE CENTRE,271011,1.3091,103.7941
PT9481,MLK EDUCATION PTE. LTD.,128020,1.3164,103.7575
PT7310,LITTLE TALENT CHILDCARE CENTRE PTE. LTD.,640420,1.3506,103.7272
PT9162,MULBERRY LEARNING CENTRE @ TOA PAYOH PTE. LTD.,319637,1.3403,103.8475
RC1845,Kim Keat Christian Church Kindergarten,339843,1.3244,103.8659
PT9175,MINDCHAMPS PRESCHOOL @ WEST COAST PLAZA PTE. LIMITED,127371,1.3037,103.7659
RC1220,Little Shepherds' Schoolhouse@Church of St Anthony,730331,1.4294,103.7787
NT0543,MY FIRST SKOOL,822208,1.4014,103.9011
PT9382,BRIGHTYEARS CHILDCARE CENTRE PTE LTD,415934,1.3328,103.9026
NT0472,MY FIRST SKOOL,820166,1.395,103.9155
PT8828,BLOSSOM DISCOVERY CENTRE LLP,556770,1.3572,103.8678
RC1808,Assyakirin Mosque Kindergarten,618617,1.3354,103.7196
PW0050,PCS JURONG WEST CENTRE,640452,1.3516,103.7185
PT8605,GLOBAL TOTS @ EASTGATE PTE LTD,428766,1.3044,103.9033
PW0121,GROW & GLOW @ PASIR RIS 21 CENTRE,510229,1.3727,103.9618
PT9469,MINDCHAMPS PRESCHOOL@BOON KENG PTE LTD,339213,1.3146,103.8659
PT9472,THE ORANGE ACADEMY (TAMPINES) PTE LTD,529509,1.3524,103.9438
PT8817,APRICOT ACADEMY (LAGUNA) PTE. LTD.,449290,1.3101,103.9321
PT6370,ALPHABET PLAYHOUSE @ EAST COAST PTE LTD,466497,1.3141,103.9406
PT9638,MFC KINDERGARTEN,307970,1.318,103.8413
ST0318,PCF Sparkletots Preschool @ Hong Kah North Blk 319 (KN),650319,1.3614,103.7465
PT9600,Cavenur Kindergarten Pte Ltd,520741,1.36,103.933
RC1754,CI AI EDUCATION INCUBATOR,822621,1.4014,103.9101
PT9431,CHERRYBROOK PRESCHOOL FARRER,266774,1.3181,103.8068
PT9284,ODYSSEY THE GLOBAL PRESCHOOL PTE LTD,423934,1.3069,103.9096
PT9130,MINDCHAMPS PRESCHOOL @JUNCTION 10 PTE LIMITED,677899,1.3804,103.7602
PW0020,PCS GHIM MOH CENTRE,270005,1.3127,103.7883
PT9591,WHITE LODGE KINDERGARTEN EAST COAST PTE LTD,399719,1.31,103.8824
ST0076,PCF Sparkletots Preschool @ Changi Simei Blk 233 (CC),520233,1.3442,103.9563
PT8976,TINKERLAND PRIVATE LIMITED,488730,1.334,103.9464
PT8596,LITTLE BIG PRE-SCHOOL PTE. LTD.,423797,1.3154,103.9099
RC1762,GLOBAL MINDZ (EDEN) PRESCHOOL LIMITED,540252,1.3938,103.9008
PT9467,SUPERLAND PRE-SCHOOL (TBCC) PTE. LTD.,169715,1.2833,103.832
WP0736,THE LITTLE SKOOL-HOUSE INTERNATIONAL PTE LTD,49513,1.285,103.8491
PT9463,STAR LEARNERS @ TAMPINES EAST PTE LTD,520297,1.3511,103.9548
SK0010,SKOOL4KIDZ CENTRE,768866,1.4243,103.8455
PT9779,WISDOM STAR PRESCHOOL @ LE QUEST PTE LTD,657993,1.3558,103.7416
ST0291,PCF Sparkletots Preschool @ Teck Ghee Blk 466 (KN),560466,1.3658,103.8571
ST0168,PCF Sparkletots Preschool @ Fernvale Blk 469B (EY),792469,1.3959,103.8777
ST0193,PCF SPARKLETOTS PRESCHOOL @ CANBERRA BLK 468C (EY),753468,1.4503,103.8149
ST0381,PCF Sparkletots Preschool @ Kolam Ayer Blk 26B (CC),322026,1.3217,103.8627
NT0590,My First Skool,824322,1.41,103.8964
PT8801,The Kids' Inn Joo Chiat Pte Ltd,427392,1.3141,103.8987
PT8351,ETONHOUSE PRE-SCHOOL PTE LTD,437737,1.3011,103.8867
ST0065,PCF Sparkletots Preschool @ Ayer Rajah-Gek Poh Blk 41 (CC),600041,1.3216,103.741
PT9583,QUAYSIDE ISLE PREPARATORY SCHOOL,98375,1.2473,103.8421
PT8804,Kiddiwinkie Schoolhouse Pte Ltd,99254,1.2645,103.8187
PT8685,Little Footprints Preschool Pte Ltd,760388,1.4292,103.8471
PT9770,SUPERLAND PRE-SCHOOL (BT) PTE. LTD.,737713,1.4348,103.7854
NT0541,MY FIRST SKOOL,750303,1.4447,103.8224
PT9474,PLAY@THOMSON HILLS PTE. LTD.,574747,1.3793,103.8315
PT9752,CHILDREN'S COVE PRESCHOOL PTE. LTD.,309975,1.3238,103.8484
PT9226,SUNFLOWER PRESCHOOL PTE. LTD.,470745,1.3374,103.9218
NT0564,MY FIRST SKOOL,820119,1.3955,103.9065
RC1755,CHANGI BETHANY SCHOOL-HOUSE,486824,1.3417,103.962
PT9687,Sunshine Kindergarten,267217,1.3242,103.7968
PT9504,SUPERLAND PRE-SCHOOL (RMCC) PTE LTD,98917,1.2759,103.8198
PT8575,MindChamps PreSchool @ East Coast,437157,1.3146,103.8947
PT8963,VICTORIA MONTESSORI SCHOOLHOUSE PTE. LTD.,520823,1.3487,103.934
PT8717,CHILDFIRST,398007,1.3075,103.8813
PT9666,MFC KINDERGARTEN,439476,1.2998,103.8907
NT0474,MY FIRST SKOOL,730347,1.4332,103.7816
PT8857,SUNFLOWER PRESCHOOL @ PUNGGOL FIELD PTE. LTD.,824201,1.3996,103.9033
NT0200,MY FIRST SKOOL,670235,1.3782,103.7712
PT9060,Little Footprints Preschool Pte Ltd,545215,1.3923,103.9033
PT9304,LITTLE FOOTPRINTS PRESCHOOL PTE LTD,541205,1.386,103.897
PT8852,ARTS JUNIOR MONTESSORI LLP,159640,1.2884,103.8114
ST0290,PCF Sparkletots Preschool @ Cheng San-Seletar Blk 435 (KN),560435,1.3677,103.8542
PT9718,SUPERGENIUS PRESCHOOL OASIS PTE. LTD.,820681,1.4028,103.9132
PT8429,CAMBRIDGE CDC @ TANGLIN PTE. LTD.,237995,1.2919999999999998,103.8412
NT0532,MY FIRST SKOOL,821267,1.4046,103.8975
RC0590,TOUCH Community Services Limited,120333,1.3152,103.7675
PT9311,NASHWA CHILDCARE CENTRE PTE. LTD.,640406,1.3543,103.7224
PT9358,CARPE DIEM CHILDCARE PTE LTD,545571,1.3581,103.8751
NT0210,MY FIRST SKOOL,680212,1.3825,103.7473
NT0519,MY FIRST SKOOL,670654,1.3878,103.7642
NT0565,MY FIRST SKOOL,671443,1.3815,103.7698
PT8650,THE LITTLE SKOOL-HOUSE INTERNATIONAL PTE LTD,529653,1.3523,103.9419
NC0001,MY FIRST SKOOL,648331,1.3393,103.7053
PT9605,ZULFA KINDERGARTEN @ SEMBAWANG MART PTE LTD,750511,1.4538,103.8196
RC0980,abc children'S place,520878,1.3522,103.9314
PT9271,Little Footprints Preschool Group Pte Ltd,520460,1.3583,103.955
PT9450,STAR LEARNERS @ BUKIT PANJANG PTE LTD,670522,1.3863,103.7662
PT8687,JOYSTAR PRESCHOOL @ BEDOK CENTRAL,460219,1.325,103.933
ST0117,PCF SPARKLETOTS PRESCHOOL @ WOODLANDS BLK 649 (CC),730649,1.4389,103.801
PT8522,PRE-SCHOOL BY-THE-PARK (LI HWAN) PTE. LTD.,556912,1.3547,103.8639
NT0521,MY FIRST SKOOL,540153,1.3914,103.9066
PT9329,BRILLIANT TOTS ACADEMY PTE. LTD.,556141,1.3474,103.8768
ST0087,PCF SPARKLETOTS PRESCHOOL @ JURONG CENTRAL BLK 403 (CC),640403,1.3538,103.7215
PT9361,Brainy Bunch Sembawang Pte Ltd,769923,1.4373,103.8276
RC1818,Chinese Kindergarten,169053,1.2858,103.8359
ST0276,PCF Sparkletots Preschool @ Jalan Kayu Blk 970 (DS),530970,1.3788,103.8804
NT0515,MY FIRST SKOOL,570153,1.3461,103.8551
PT9784,HANIS Montessori Playhouse ( Elias Mall ),510623,1.3778,103.9424
NT0390,MY FIRST SKOOL,680602,1.3972,103.7445
PT9790,White Lodge Preschool Toa Payoh,319457,1.3332,103.8524
PT9788,MULBERRY LEARNING  CENTRE @ SIXTH AVENUE PTE. LTD.,267551,1.3269,103.7946
NT0070,MY FIRST SKOOL,330066,1.3206,103.8698
PT1900,LITTLE FOOTPRINTS PRESCHOOL PTE. LTD.,760366,1.429,103.8458
PT9011,Little Footprints Preschool Pte Ltd,824168,1.3937,103.914
PT9340,ICHIBAN MONTESSORI CHILDCARE CENTRE (KHC) PTE. LTD.,683805,1.3727,103.7436
PT9462,KIDS EVERLAND HOUSE PTE. LTD.,757022,1.442,103.8179
ST0071,PCF SPARKLETOTS PRESCHOOL @ WHAMPOA BLK 105 (CC),320105,1.3284,103.854
EB0002,E-BRIDGE PRE-SCHOOL PTE. LTD.,822615,1.4037,103.9099
RC1850,Bethesda (Bukit Arang) Kindergarten,556110,1.3495,103.8674
ST0083,PCF SPARKLETOTS PRESCHOOL @ LIMBANG Blk 567 (CC),680567,1.3951,103.7459
PT9459,ELFA Chinese Preschool,597627,1.3199,103.7794
PT9439,CAELUM JUNIOR @ DOWNTOWN EAST PTE LTD,519599,1.3772,103.9552
PT9734,MapleBear Playworks Pte.Ltd.,329683,1.321,103.8524
PT8943,LITTLE TREE HOUSE @ WESTWOOD PTE. LTD.,648782,1.352,103.7015
NT0578,MY FIRST SKOOL,735785,1.4468,103.8055
PT9480,CAMBERLEY INTERNATIONAL PRE-SCHOOL PRIVATE LIMITED,509575,1.361,103.965
PT9466,MAPLEBEAR WHIZ KIDS PTE. LTD.,228085,1.3038,103.847
PT8904,CARPE DIEM STARLETS 2 PTE. LTD.,680120,1.3788,103.7503
RC1833,Shalom Kindergarten,509025,1.3785,103.9582
RC1779,HOPE CHILDCARE CENTRE,159460,1.2835,103.8183
YM0190,MY WORLD PRESCHOOL LTD,760478,1.4294,103.8507
PT9366,PAT'S SCHOOLHOUSE PTE. LTD.,127309,1.2933,103.7667
NT0560,MY FIRST SKOOL,513524,1.3705,103.9476
PT9749,MAPLEBEAR LEARNING POINT PTE LTD,545270,1.3909,103.9033
RC1870,Calvary Pandan Kindergarten,609337,1.3211,103.7461
PT8398,BESTCARE MONTESSORI PTE LTD,339771,1.3179,103.8624
PT9517,UNITED WORLD PRESCHOOL PTE. LTD.,428802,1.3052,103.9051
PT9388,"INNO MONTESSORI PTE. LTD,",428915,1.3076,103.9069
RC1780,ST JOSEPH'S HOME INFANT AND CHILDCARE,648141,1.3498,103.7083
PT9421,Little Footprints Preschool @ Boon Keng Pte Ltd,339945,1.3196,103.8659
NT0090,MY FIRST SKOOL,390000,1.3091,103.8801
NT0090,MY FIRST SKOOL,390000,1.30938,103.88022
PT9465,LEARNING VISION @ WORK PTE LTD,609606,1.334,103.7452
PT9267,MULBERRY LEARNING CENTRE CENTRAL PTE LTD,229944,1.3104,103.839
ST0375,PCF Sparkletots Preschool @ Jalan Kayu Blk 999 (DS),530999,1.3846,103.8799
PT8952,SUNSHINE KIDS CARE CENTRE PTE. LTD.,822101,1.3978,103.9064
PT9679,Morning Glory Preschool,640414,1.3528,103.726
PT7540,BRIGHT KIDS SCHOOL HOUSE PTE LTD,820192,1.3998,103.9095
PT9245,LITTLE FOOTPRINTS PRESCHOOL PTE LTD,829498,1.4193,103.9091
NT0557,MY FIRST SKOOL,823312,1.4109,103.9012
NT0581,MY FIRST SKOOL,821659,1.4005,103.9198
EB0007,E-Bridge Pre-School Pte. Ltd.,820670,1.4058,103.9132
EB0009,E-BRIDGE PRE-SCHOOL PTE LTD,828683,1.3991,103.9146
PT9241,GREENLAND CHILDCARE @ PUNGGOL PTE LTD,821308,1.4078,103.9009
PT9350,RAFFLES KIDZ @ PUNGGOL PTE LTD,829646,1.4156,103.9056
NT0580,MY FIRST SKOOL,828803,1.4072,103.9044
NT0575,MY FIRST SKOOL,822682,1.4034,103.916
SK0012,SKOOL4KIDZ CENTRE,821314,1.4083,103.898
PT9204,NOBLELAND ARTS N LEARNING PLACE @PUNGGOL PTE. LTD.,820261,1.4054,103.8968
PT9202,NOBLELAND ARTS N LEARNING PLACE @WATERWAY PTE. LTD.,821665,1.4022,103.9136
PT9336,GREENLAND CHILDCARE @ PUNGGOL DRIVE PTE LTD,821678,1.4057,103.9087
PT9249,NURTURESTARS CHILD CARE,828654,1.4102,103.9061
PT9156,Little Footprints Preschool Pte Ltd,824107,1.3962,103.908
PT9066,BUSY BEES SINGAPORE PTE LTD,821211,1.4018,103.8999
PT8858,SUNFLOWER PRESCHOOL @ PUNGGOL FIELD WALK PTE. LTD.,824128,1.393,103.912
PT7290,BRIGHT KIDS SCHOOL HOUSE PTE LTD,824173,1.396,103.9108
PT9496,ESHKOL VALLEY @ GOSPEL LIGHT PTE. LTD.,828753,1.3916,103.9135
PT9293,BERRY TREE@PUNGGOL PTE LTD,823195,1.4011,103.9068
NT0536,MY FIRST SKOOL,821306,1.4061,103.9054
EB0014,E-BRIDGE PRE-SCHOOL PTE LTD,821226,1.4027,103.8931
NT0507,MY FIRST SKOOL,820183,1.3988,103.9098
PT8863,LITTLE MIGHTY ME PTE. LTD.,822274,1.4031,103.9023
PT7800,GENIUS SCHOOL HOUSE,824637,1.3991,103.9155
PT8808,HOUSE ON THE HILL PTE LTD,228481,1.3018,103.8471
PT9623,COCO-RO LEARNING HOUSE,239850,1.2983,103.838
PT8990,Little Footprints Preschool Pte Ltd,408942,1.3243,103.8927
PT9243,LITTLE FOOTPRINTS PRESCHOOL PTE. LTD.,329857,1.3272,103.8455
PT9012,LITTLE FOOTPRINTS PRESCHOOL PTE. LTD.,601022,1.3233,103.7394
PT9353,SMI BERRIIS PRESCHOOL @JURONG WEST PTE LTD,640917,1.3403,103.6878
PT9281,Zee Learning Cove,127375,1.3087,103.7614
PT8868,ZEE PLAYHOUSE PTE LTD,259699,1.3151,103.8363
PT8673,ZEE JUNIORS,439235,1.3092,103.899
PT9410,MINDCHAMPS PRESCHOOL@ONE RAFFLES PLACE PTE.LTD,48616,1.2843,103.8511
RC1799,David & Goliath Preschool,618744,1.3365,103.7221
RC0890,DAYSTAR CHILD DEVELOPMENT CENTRE,271008,1.3065,103.7942
ST0267,PCF Sparkletots Preschool @ Tampines Changkat Blk 106 (EY),521106,1.3475,103.9477
PT9436,NANYANG KINDERCARE CENTRE PTE LTD,670537,1.3837,103.7631
WP1110,THE LITTLE SKOOL-HOUSE INTERNATIONAL PTE LTD,129798,1.3014,103.769
PT9724,MY LEARNING HAVEN (MEDIAPOLIS),138565,1.2938,103.7931
PT0215,ROSYTH CHILD CARE CENTRE,557783,1.3576,103.8699
PT7900,EILEEN'S LEARNING CENTRE PTE. LTD.,521866,1.3554,103.9344
PT9425,RAINBOW COVE @ ALEXANDRA PTE LTD,119963,1.2737,103.8013
PT9346,GLOBAL TOTS @ SEMBAWANG PTE LTD,758427,1.4381,103.8246
PT9682,SUNFLOWER PRESCHOOL @ WEST ROCK PTE LTD,650461,1.3546,103.7397
PT9633,Hanis Montessori Kindergarten (Kovan),534645,1.355,103.8785
PT9574,Hanis Montessori Kindergarten ( Choa Chu Kang ),680707,1.3905,103.7472
NT0495,MY FIRST SKOOL,141082,1.2945,103.8088
NT0270,MY FIRST SKOOL,730848,1.4418,103.7918
SK0023,SKOOL4KIDZ CENTRE,750101,1.4514,103.8309
PT9584,HANIS Montessori Kindergarten ( Tampines ),520374,1.3564,103.9586
RC1873,Little Shepherds' Schoolhouse@Blessed Sacrament Church,149603,1.2955,103.7989
PT8805,IMAN CHILDCARE ( WOODGROVE) PTE. LTD.,738405,1.4285,103.7763
PT8672,STAR LEARNERS @ BUKIT BATOK PTE. LTD.,650501,1.3515,103.755
NT0477,MY FIRST SKOOL,544203,1.3871,103.8955
PT7470,Appleland Montessori Child Care Centre Pte Ltd,650165,1.3473,103.742
PT8690,LORNA WHISTON PRE-SCHOOL,397628,1.3031,103.8731
PT8981,SUNFLOWER PRESCHOOL @ CLEMENTI PTE. LTD.,120431,1.3138,103.7625
ST0095,PCF SPARKLETOTS PRESCHOOL @ SERANGOON BLK 141 (CC),550141,1.3686,103.8745
PT9266,URBAN KIDS CHILDCARE PTE LTD,757087,1.4448,103.8128
ST0245,PCF Sparkletots Preschool @ Kaki Bukit Blk 519 (KN),460519,1.3309,103.9281
ST0045,PCF SPARKLETOTS PRESCHOOL @ SENGKANG CENTRAL BLK 270 (CC),540270,1.3861,103.8942
ST0002,PCF SPARKLETOTS PRESCHOOL @ KEBUN BARU BLK 109 (CC),560109,1.3701,103.8377
ST0029,PCF SPARKLETOTS PRESCHOOL @ KEAT HONG BLK 448 (CC),680448,1.3802,103.7373
ST0086,PCF SPARKLETOTS PRESCHOOL @ KEAT HONG BLK 435 (CC),680435,1.3851,103.7411
ST0035,PCF SPARKLETOTS PRESCHOOL @ KEAT HONG BLK 287 (CC),680287,1.3788,103.7416
ST0144,PCF SPARKLETOTS PRESCHOOL @ JURONG CENTRAL BLK 308 (CC),600308,1.3473,103.7346
ST0003,PCF SPARKLETOTS PRESCHOOL @ FENGSHAN BLK 184 (CC),460184,1.3261,103.9414
ST0091,PCF SPARKLETOTS PRESCHOOL @ EUNOS BLK 620 (CC),470620,1.3343,103.9177
ST0190,PCF SPARKLETOTS PRESCHOOL @ BUKIT BATOK BLK 293 (CC),650293,1.346,103.7554
ST0277,PCF Sparkletots Preschool @ Braddell Heights Blk 417 (DS),550417,1.3499,103.8751
PT9147,STAR LEARNERS RESPECT PTE. LTD.,576441,1.3614,103.8308
RC1843,Hope Community Kindergarten - Sembawang,757614,1.4548,103.8146
PT9277,CAMELOT INTERNATIONAL INFANT CARE PTE LTD,550301,1.3530000000000002,103.8679
NT0476,MY FIRST SKOOL,540269,1.3844,103.8956
PT9412,KIDSCAMPUS CHAI CHEE PTE. LTD.,469662,1.3269,103.932
PT9258,LITTLE FOOTPRINTS PRESCHOOL PTE LTD,738375,1.4287,103.7786
PT8675,CHILDREN'S COVE PTE. LTD.,258352,1.3129,103.8261
PT8740,KINDERLAND PRESCHOOL,440087,1.3025,103.9056
ST0113,PCF SPARKLETOTS PRESCHOOL @ TAMPINES CENTRAL BLK 713 (CC),520713,1.3592,103.9376
PT9637,My Prep School Pte. Ltd.,448910,1.3074,103.9253
PT9768,Cambridge@Artra Alexandra Pte Ltd,158736,1.2901,103.8166
PT9656,Pibos Garden Playhouse,299574,1.3237,103.8146
PT9571,Swallows and Amazons Kindergarten,287994,1.3387,103.7933
ST0141,PCF SPARKLETOTS PRESCHOOL @ PIONEER BLK 661B (CC),642661,1.3359,103.7056
PT9386,MINDCHAMPS CHINESE PRESCHOOL@THOMSON PTE. LIMITED,298137,1.3335,103.8398
PT7480,SEEDLINGS MONTESSORI ALEXANDRA PTE LTD,142057,1.2927,103.811
PT9272,Little Footprints Preschool Group Pte Ltd,600248,1.3423,103.7401
PT9247,Little Footprints Preschool Group Pte Ltd,730877,1.4451,103.7913
ST0189,PCF SPARKLETOTS PRESCHOOL @ PUNGGOL WEST BLK 222 (CC),820222,1.4011,103.8943
PT9729,The Little Skool-House At-KK Hospital,229835,1.3074,103.8471
ST0214,PCF Sparkletots Preschool @ Telok Blangah Blk 2 (KN),130002,1.3031,103.7829
NT0540,MY FIRST SKOOL,760423,1.4228,103.8482
PT9136,MLC (WELLINGTON) PTE. LTD.,750511,1.4538,103.8196
PT9138,MLC (CANBERRA) PTE. LTD.,750482,1.4554,103.8155
PT8933,PAT'S SCHOOLHOUSE PTE. LTD.,758352,1.4169,103.816
PT8377,CHERIE HEARTS NURTURE COTTAGE PTE. LTD.,759100,1.4254,103.8241
PT1270,HIS LITTLE KINGDOM CHILD CARE & DEVELOPMENT CENTRE,759245,1.4285,103.826
SK0016,SKOOL4KIDZ CENTRE,750365,1.4444,103.8163
PT9471,CARPE DIEM @ NORDCOM PTE LTD,757088,1.4441,103.8139
PT8885,STAR LEARNERS @ SEMBAWANG WAY PTE. LTD.,750355,1.4496,103.8187
SK0015,SKOOL4KIDZ CENTRE (DS),752128,1.4451,103.8339
PT9385,CANBERRA PRESCHOOL PTE LTD,757088,1.4441,103.8139
NT0553,MY FIRST SKOOL,750491,1.4561,103.8177
NT0569,MY FIRST SKOOL,750120,1.4457,103.8315
RC1430,GLORY JOY CHILD DEVELOPMENT CENTRE,752501,1.4522,103.8214
EB0005,E-BRIDGE PRE-SCHOOL PTE. LTD.,753592,1.4509,103.8281
PT9282,SPRING BUDS LEARNING CAMPUS PTE LTD,758467,1.4503,103.8284
NT0556,MY FIRST SKOOL,758459,1.4418,103.8248
PT9505,MINDCHAMPS PRESCHOOL @ NORDCOM II PTE. LIMITED,757044,1.4431,103.8159
PT9112,BERRY TREE PRESCHOOL@SEMBAWANG PRIVATE LIMITED,750511,1.4538,103.8196
PT9397,LITTLE FOOTPRINTS PRESCHOOL PTE. LTD.,546674,1.3922,103.9015
PT8524,MINDCHAMPS PRESCHOOL @ TPY PTE. LIMITED,310190,1.3330000000000002,103.8486
NT0320,MY FIRST SKOOL,430001,1.3113,103.8977
PT9234,Little Footprints Preschool Group Pte Ltd,90113,1.2748,103.8269
PT9452,SAFARI HOUSE PRESCHOOL JW,648965,1.3383,103.6939
PT0920,LEARNINGHILL EDUCARE PTE LTD,456903,1.3168,103.9277
PT9152,STAR LEARNERS @ CCK SPORTS CENTRE PTE. LTD.,689236,1.3907,103.7481
RC1777,BETHEL TOTS CENTRE,380100,1.321,103.8841
PT9139,MLC (BISHAN) PTE. LTD.,570201,1.3551,103.8469
ST0054,PCF SPARKLETOTS PRESCHOOL @ GEYLANG SERAI BLK 412 (CC),400412,1.3183,103.899
ST0340,PCF Sparkletots Preschool @ Sembawang West Blk 730 (KN),730730,1.4425,103.7977
PT9257,SUPERLAND PRE-SCHOOL (UE SQUARE) PTE. LTD.,239918,1.2919999999999998,103.8427
PT9438,SAFARI HOUSE PRESCHOOL BISHAN,577177,1.3488,103.8409
PT9224,RAINBOW COVE @ SENNETT PTE. LTD.,466912,1.3164,103.9378
PT9545,"WHITE LODGE, UPPER EAST COAST PTE LTD",507889,1.365,103.9717
NT0554,MY FIRST SKOOL,542332,1.3951,103.8915
NT0511,MY FIRST SKOOL,510568,1.3687,103.9489
NT0340,MY FIRST SKOOL,730406,1.4294,103.7727
NT0489,MY FIRST SKOOL,520341,1.3512,103.961
PT9643,KIZROO KINDERGARTEN PTE LTD,287994,1.3387,103.7933
PT9451,KIDSCAMPUS JW PTE LTD,640837,1.3431,103.6929
ST0103,PCF SPARKLETOTS PRESCHOOL @ BOON LAY BLK 627 (CC),640627,1.342,103.6989
PT9542,Kiddiwinkie Schoolhouse Pte Ltd,228218,1.3079,103.8327
PT8962,MINDCHAMPS PRESCHOOL @ WOODLANDS PTE. LTD.,737853,1.4348,103.8028
PT8995,LEARNING VISION @ WORK PTE. LTD.,408601,1.3195,103.8922
PT9306,MINDCHAMPS PRESCHOOL @ CHANGI AIRPORT PTE LTD,819663,1.3553,103.9858
PT8814,SAFARI HOUSE PRESCHOOL JURONG,609930,1.33,103.7471
PT9464,MINDCHAMPS PRESCHOOL@FUSION PTE LTD,138632,1.2994,103.7876
PT9133,POSSO PRESCHOOL @ JURONG EAST,609923,1.327,103.7463
WP1109,THE LITTLE SKOOL-HOUSE INTERNATIONAL PTE LTD,609607,1.3359,103.7446
PT9380,EILEEN'S EDUCATION HUB PTE LTD,510258,1.3671,103.9646
ST0004,PCF SPARKLETOTS PRESCHOOL @ BUKIT GOMBAK BLK 395A (CC),651395,1.3642,103.7519
PT9223,RAINBOW COVE @ BUTTERFLY PTE. LTD.,349844,1.3344,103.8755
PT9675,The Kids' Inn,387908,1.3159999999999998,103.8894
PT9140,STAR LEARNERS @ BOON KENG PTE. LTD.,330005,1.3163,103.8604
PT9761,ARTEMIS PRESKOOL @ WOODLEIGH,341115,1.3365,103.8726
PT9778,MULBERRY LEARNING CENTRE @ CBP PTE. LTD.,486035,1.3379,103.9645
PT9769,JHS Montessori,117488,1.2787,103.7883
PT9756,MORNING GLORY CHILDCARE,658065,1.337,103.7597
PT9154,ICHIBAN MONTESSORI CHILDCARE CENTRE (PURVIS) PTE. LTD.,188596,1.2965,103.8555
PT9367,GLOBAL TOTS @ MOUNTBATTEN PTE LTD,439291,1.2997,103.8938
PT9286,MAPLEBEAR SMART LEARNERS PTE LTD,554360,1.376,103.8706
PT9027,Kiddiwinkie Schoolhouse Singapore Pte Ltd,439659,1.3024,103.8964
PT9456,SPRING BRAINY KIDZ (BUKIT BATOK) PTE LTD,651296,1.3441,103.7464
ST0191,PCF SPARKLETOTS PRESCHOOL @ ULU PANDAN BLK 24 (DS),270024,1.3090000000000002,103.7855
PT9390,CHILDREN'S COVE PRESCHOOL PTE.LTD.,149382,1.2993,103.8072
PT8998,Little Greenhouse @ Sengkang Pte. Ltd.,548675,1.3934,103.9004
PT8999,Greenland Childcare Centre,339631,1.3241,103.8698
RC1768,BETHLEHEM EDUCARE CENTRE,520320,1.3507,103.9571
PT8992,MINDCHAMPS PRESCHOOL @ RIVER VALLEY PTE. LTD.,239359,1.2929,103.8397
PT8150,SMARTZ PLAYHOUSE PTE. LTD.,467614,1.3179,103.9419
YM0140,MY WORLD PRESCHOOL LTD.,730863,1.4404,103.795
NT0513,MY FIRST SKOOL,570236,1.359,103.847
PT9113,ICHIBAN MONTESSORI CHILDCARE CENTRE (SEGAR) PTE. LTD,671546,1.3885,103.7704
RC1733,PPIS CHILD DEVELOPMENT CENTRE - BUKIT BATOK,659759,1.3475,103.7684
ST0166,PCF Sparkletots Preschool @ Nee Soon East Blk 312 (CC),760312,1.4315,103.8414
ST0122,PCF SPARKLETOTS PRESCHOOL @ SENGKANG CENTRAL BLK 208 (CC),540208,1.384,103.8981
PT0860,TWINKLE CHILD CARE AND DEVELOPMENT CENTRE,596360,1.3442,103.7741
ST0253,PCF Sparkletots Preschool @ Pasir Ris Central Blk 426 (DS),510426,1.37,103.9559
ST0239,PCF Sparkletots Preschool @ Joo Chiat (DS),425611,1.3125,103.9075
ST0304,PCF Sparkletots Preschool @ Jurong Spring Blk 465 (KN),640465,1.3501,103.7232
ST0107,PCF SPARKLETOTS PRESCHOOL @ JURONG SPRING BLK 528 (DS),640528,1.3483,103.717
ST0017,PCF Sparkletots Preschool @ Pasir Ris Central Blk 412 (CC),510412,1.3734,103.9551
ST0252,PCF Sparkletots Preschool @ Pasir Ris East Blk 216 (KN),510216,1.369,103.9609
ST0308,PCF Sparkletots Preschool @ Ayer Rajah-Gek Poh Blk 750 (KN),640750,1.3479,103.6992
ST0313,PCF Sparkletots Preschool @ Ayer Rajah-Gek Poh Blk 276D (KN),644276,1.3535,103.7045
ST0105,PCF Sparkletots Preschool @ Ayer Rajah-Gek Poh Blk 748 (CC),640748,1.3478,103.698
ST0223,PCF Sparkletots Preschool @ Toa Payoh East Blk 45 (DS),310045,1.3359,103.8538
RC1787,SUPER TALENT CHILDCARE LTD,381122,1.3226,103.8825
PT9409,STAR LEARNERS @ UPPER BUKIT TIMAH PTE LTD,677781,1.3733,103.773
PT9706,Safari House Preschool Lakeside,648131,1.3459,103.7246
ST0354,PCF Sparkletots Preschool @ Nee Soon Central Blk 646 (DS),760646,1.4221,103.8375
ST0355,PCF Sparkletots Preschool @ Nee Soon Central Blk 737 (KN),760737,1.429,103.8324
ST0365,PCF Sparkletots Preschool @ Punggol West Blk 308B (DS),822308,1.4077,103.8997
ST0149,PCF Sparkletots Preschool @ Nee Soon East Blk 333D (CC),764333,1.4321,103.8462
ST0142,PCF SPARKLETOTS PRESCHOOL @ TAMPINES CENTRAL BLK 858 (CC),520858,1.3543,103.9376
ST0230,PCF Sparkletots Preschool @ Potong Pasir Blk 143 (DS),350143,1.3329,103.8662
ST0360,PCF Sparkletots Preschool @ Punggol West Blk 271A (KN),821271,1.4037,103.9003
ST0197,PCF Sparkletots Preschool @ Fernvale Blk 436D (EY),794436,1.3922,103.8766
ST0116,PCF SPARKLETOTS PRESCHOOL @ TAMPINES CENTRAL BLK 867A (CC),521867,1.3557,103.9338
ST0236,PCF Sparkletots Preschool @ Geylang Serai Blk 11 (KN),400011,1.3218,103.9044
ST0352,PCF Sparkletots Preschool @ Nee Soon Link Blk 408 (KN),760408,1.4263,103.8486
ST0231,PCF Sparkletots Preschool @ Potong Pasir Blk 14 (KN),360014,1.3361,103.8799
PT2690,PAT'S SCHOOLHOUSE PTE LTD,188647,1.2990000000000002,103.8495
NT0533,MY FIRST SKOOL,643656,1.336,103.7
NT0470,MY FIRST SKOOL,641671,1.344,103.7023
PT8620,MODERN MONTESSORI PRE SCHOOL CENTRE,540248,1.3922,103.8985
PT7490,AMAZING STAR MONTESSORI HOUSE (GREENRIDGE),671524,1.3854,103.7662
PT9120,STAR LEARNERS @ RIVERVALE PTE LTD,540195,1.3928,103.9024
ST0145,PCF SPARKLETOTS PRESCHOOL @ TAMPINES CHANGKAT Blk 385 (CC),520385,1.355,103.9585
ST0013,PCF Sparkletots Preschool @ Pasir Ris West Blk 650 (EY),510650,1.3787,103.9381
ST0172,PCF Sparkletots Preschool @ Tampines North Blk 443 (CC),520443,1.3588,103.9519
ST0345,PCF Sparkletots Preschool @ Sembawang Central Blk 309 (KN),750309,1.4468,103.8216
ST0101,PCF Sparkletots Preschool @ Sembawang Central Blk 504A (CC),751504,1.4513,103.8241
ST0201,PCF Sparkletots Preschool @ Sembawang Central Blk 115B (CC),752115,1.4463,103.8294
ST0182,PCF Sparkletots Preschool @ Sembawang Central Blk 105 (CC),750105,1.4489,103.8324
ST0254,PCF Sparkletots Preschool @ Pasir Ris West Blk 517 (KN),510517,1.3747,103.9439
ST0278,PCF Sparkletots Preschool @ Sengkang East Blk 103 (EY),540103,1.3829,103.9012
ST0279,PCF Sparkletots Preschool @ Sengkang East Blk 143 (KN),540143,1.3901,103.9057
ST0085,PCF Sparkletots Preschool @ Sengkang East Blk 123A (CC),541123,1.386,103.9029
ST0296,PCF Sparkletots Preschool @ Marymount Blk 231 (DS),570231,1.3573,103.8458
ST0192,PCF SPARKLETOTS PRESCHOOL @ TAMPINES NORTH BLK 492 (CC),524492,1.3639,103.9557
ST0235,PCF Sparkletots Preschool @ Mountbatten Blk 51 (KN),390051,1.3082,103.8858
ST0090,PCF Sparkletots Preschool @ Marymount Blk 219 (CC),570219,1.3574,103.8494
ST0066,PCF SPARKLETOTS PRESCHOOL @ BEDOK BLK 13 (CC),460013,1.3204,103.9367
ST0282,PCF Sparkletots Preschool @ Sengkang East Blk 187B (KN),542187,1.3943,103.9058
ST0131,PCF Sparkletots Preschool @ Marymount Blk 257 (CC),570257,1.3597,103.8431
ST0260,PCF Sparkletots Preschool @ Tampines East Blk 262 (DS),520262,1.3538,103.951
ST0259,PCF Sparkletots Preschool @ Tampines East Blk 261 (KN),520261,1.3543,103.951
ST0247,PCF Sparkletots Preschool @ Bedok Blk 30 (DS),461030,1.3235,103.9364
ST0098,PCF SPARKLETOTS PRESCHOOL @ KOLAM AYER BLK 39 (CC),330039,1.3208,103.8662
NT0370,MY FIRST SKOOL,540101,1.3828,103.8993
PT9701,Little Footprints Preschool Pte Ltd,640976,1.34,103.6938
PT8837,RAINFOREST SCHOOLHOUSE PTE LTD,328667,1.3230000000000002,103.8497
ST0032,PCF Sparkletots Preschool @ Tampines Changkat Blk 112 (CC),521112,1.3463,103.9475
ST0036,PCF Sparkletots Preschool @ Tampines Changkat Blk 273 (CC),520273,1.3487,103.9504
ST0261,PCF Sparkletots Preschool @ Tampines Changkat Blk 284 (KN),520284,1.3491,103.9526
ST0262,PCF Sparkletots Preschool @ Tampines Changkat Blk 318 (KN),520318,1.3515,103.9561
ST0263,PCF Sparkletots Preschool @ Tampines Changkat Blk 358 (KN),520358,1.3545,103.961
ST0178,PCF Sparkletots Preschool @ Bukit Timah Blk 207 (CC),120207,1.3223,103.7624
ST0148,PCF SPARKLETOTS PRESCHOOL @ CANBERRA BLK 413 (CC),750413,1.4517,103.8179
ST0347,PCF Sparkletots Preschool @ Canberra Blk 487 (KN),750487,1.4555,103.8162
ST0300,PCF Sparkletots Preschool @ Bukit Batok East Blk 285C (KN),603285,1.3379,103.7466
ST0052,PCF SPARKLETOTS PRESCHOOL @ BUKIT TIMAH BLK 305 (CC),120305,1.3221,103.766
ST0094,PCF SPARKLETOTS PRESCHOOL @ BUKIT BATOK EAST BLK 208 (CC),600208,1.3384,103.7427
ST0060,PCF SPARKLETOTS PRESCHOOL @ BUKIT BATOK EAST BLK 271 (CC),600271,1.3417,103.7462
ST0049,PCF SPARKLETOTS PRESCHOOL @ JURONG SPRING BLK 553 (CC),640553,1.3531,103.7189
ST0370,PCF Sparkletots Preschool @ Bukit Timah Blk 312B (DS),122312,1.3197,103.7645
ST0316,PCF Sparkletots Preschool @ Bukit Batok East Blk 241 (KN),650241,1.3509,103.7545
ST0301,PCF Sparkletots Preschool @ Taman Jurong Blk 352 (DS),610352,1.3394,103.7202
ST0080,PCF SPARKLETOTS PRESCHOOL @ JURONG SPRING BLK 455 (CC),640455,1.3511,103.7185
PT9742,HEARTYLAND PRESCHOOL PTE LTD,678265,1.3773,103.7634
PT8834,ESHKOL VALLEY @ SENGKANG PEARL PTE. LTD.,541212,1.3864,103.9
PT9418,EQ-LEARNERS EDUCARE PTE LTD,680475,1.378,103.739
EB0010,E-BRIDGE PRE-SCHOOL PTE LTD,540217,1.3898,103.8945
EB0006,E-BRIDGE PRE-SCHOOL PTE. LTD.,677743,1.3802,103.7642
RC1758,CHOW & CHOWS CHILDCARE & EARLY LEARNING CENTRE LTD.,680151,1.3784,103.7573
PT8488,CARPE DIEM EDUCARE PTE. LTD.,670167,1.3776,103.765
RC1788,CANOSSAVILLE CHILDREN AND COMMUNITY SERVICES,387621,1.3267,103.8816
PT9707,Trehaus Pte Ltd,179097,1.2913,103.85
ST0357,PCF Sparkletots Preschool @ Punggol Shore Blk 171C (EY),823171,1.3948,103.9133
ST0185,PCF SPARKLETOTS PRESCHOOL @ TAMPINES WEST BLK 887 (CC),520887,1.3505,103.9319
ST0367,PCF Sparkletots Preschool @ Punggol Shore Blk 663A (DS),821663,1.4002,103.9171
ST0187,PCF SPARKLETOTS PRESCHOOL @ MACPHERSON BLK 54 (CC),370054,1.3239,103.8876
ST0125,PCF Sparkletots Preschool @ Woodgrove Blk 571B (CC),732571,1.4301,103.7906
ST0165,PCF Sparkletots Preschool @ Tampines West Blk 151 (EY),521151,1.3514,103.9438
ST0154,PCF SPARKLETOTS PRESCHOOL @ TAMPINES WEST BLK 890A (CC),521890,1.3467,103.9339
ST0074,PCF Sparkletots Preschool @ Woodgrove Blk 302 (CC),730302,1.4315,103.7744
ST0005,PCF SPARKLETOTS PRESCHOOL @ WOODGROVE BLK 894D (CC),732894,1.4356,103.7903
ST0041,PCF SPARKLETOTS PRESCHOOL @ FENGSHAN BLK 115 (CC),460115,1.3314,103.9369
ST0025,PCF SPARKLETOTS PRESCHOOL @ FENGSHAN BLK 76 (CC),460076,1.3283,103.9421
ST0343,PCF Sparkletots Preschool @ Woodgrove Blk 899B (KN),731899,1.4361,103.7953
ST0127,PCF Sparkletots Preschool @ Punggol Shore Blk 622C (CC),823622,1.4007,103.9109
ST0139,PCF Sparkletots Preschool @ Woodgrove Blk 334 (CC),730334,1.43,103.7805
ST0335,PCF Sparkletots Preschool @ Woodgrove Blk 302 (KN),730302,1.4315,103.7744
ST0047,PCF Sparkletots Preschool @ Woodgrove Blk 339 (CC),730339,1.431,103.7816
ST0359,PCF Sparkletots Preschool @ Punggol Shore Blk 174D (KN),824174,1.3974,103.9101
ST0358,PCF Sparkletots Preschool @ Punggol Shore Blk 105D (KN),824105,1.3972,103.9052
ST0336,PCF Sparkletots Preschool @ Woodgrove Blk 364 (KN),730364,1.4341,103.7867
ST0258,PCF Sparkletots Preschool @ Tampines West Blk 140 (DS),520140,1.3476,103.944
ST0242,PCF Sparkletots Preschool @ Fengshan Blk 126 (DS),460126,1.3282,103.9389
ST0234,PCF Sparkletots Preschool @ Macpherson Blk 108 (KN),380108,1.3191,103.8852
ST0232,PCF Sparkletots Preschool @ Macpherson Blk 31 (KN),370031,1.3297,103.8854
ST0056,PCF SPARKLETOTS PRESCHOOL @ FENGSHAN BLK 108 (CC),460108,1.3327,103.9362
PT8910,MINDCHAMPS PRESCHOOL @ JURONG WEST PTE. LTD.,648965,1.3383,103.6939
PT8456,MERLIONKIDS @ KOVAN PTE. LTD.,546871,1.3687,103.8807
RC1785,LUTHER PRESCHOOL,149601,1.3062,103.7992
PT4490,LITTLE WORLD CHILD CARE AND DEVELOPMENT CENTRE PTE LTD,540113,1.3838,103.9017
PT6330,THE SUNBIRD CHILD DEVELOPMENT CENTRE PTE LTD,541122,1.3866,103.906
PT8835,STAR LEARNERS @ SENGKANG PTE. LTD.,540266,1.382,103.897
ST0152,PCF Sparkletots Preschool @ Zhenghua Blk 550B (EY),672550,1.3896,103.7674
ST0315,PCF Sparkletots Preschool @ Bukit Batok Blk 180 (KN),650180,1.3456,103.7428
ST0109,PCF SPARKLETOTS PRESCHOOL @ BUKIT BATOK BLK 178 (CC),650178,1.3461,103.7426
ST0028,PCF SPARKLETOTS PRESCHOOL @ BUKIT BATOK BLK 118 (CC),650118,1.35,103.7465
ST0150,PCF Sparkletots Preschool @ Sembawang West Blk 780D (CC),734780,1.4481,103.8019
ST0092,PCF SPARKLETOTS PRESCHOOL @ QUEENSTOWN BLK 145 (CC),140145,1.2938,103.805
ST0059,PCF SPARKLETOTS PRESCHOOL @ KEAT HONG BLK 353 (CC),680353,1.3821,103.7434
ST0330,PCF Sparkletots Preschool @ Keat Hong Blk 411 (DS),680411,1.3811,103.7413
ST0329,PCF Sparkletots Preschool @ Keat Hong Blk 295 (DS),680295,1.3782,103.741
ST0327,PCF Sparkletots Preschool @ Zhenghua Blk 455A (KN),671455,1.3876,103.7712
ST0314,PCF Sparkletots Preschool @ Bukit Batok Blk 148 (KN),650148,1.3493,103.7437
ST0216,PCF Sparkletots Preschool @ Queenstown Blk 3 (KN),150003,1.2871,103.807
ST0097,PCF SPARKLETOTS PRESCHOOL @ BUKIT BATOK BLK 206 (CC),650206,1.3467,103.7494
NT0440,MY FIRST SKOOL,540230,1.3883,103.9013
RC1590,LITTLE DOLPHINS PLAYSKOOL,680276,1.3796,103.7443
PT8486,KINDERTOWN EDUCARE PTE. LTD.,547686,1.3914,103.9004
PT9128,ICHIBAN MONTESSORI CHILDCARE CENTRE (CCK) PTE LTD,680427,1.3809,103.7398
PT9320,CREATIVELAND CHILDCARE AND DEVELOPMENT CENTRE@CRESCENT PTE LTD,684686,1.4041,103.7483
RC1775,CHOW & CHOWS CHILDCARE & EARLY LEARNING CENTRE (CCK 542) LTD.,680542,1.3936,103.7448
PT4140,BRIGHT KIDS @ JURONG WEST PTE LTD,640641,1.3407,103.6964
PT8818,ACE@WORK CHILDCARE PTE LTD,679675,1.3735,103.7675
SK0014,SKOOL4KIDZ CENTRE,544618,1.3984,103.8873
ST0293,PCF Sparkletots Preschool @ Cheng San-Seletar Blk 556 (DS),560556,1.372,103.8576
ST0184,PCF Sparkletots Preschool @ Bishan East-Sin Ming Blk 409 (CC),570409,1.3622,103.8349
ST0363,PCF Sparkletots Preschool @ Sengkang West Blk 330A (DS),541330,1.3966,103.8899
ST0238,PCF Sparkletots Preschool @ Kembangan-Chai Chee Blk 116 (DS),410116,1.3228,103.9119
ST0104,PCF Sparkletots Preschool @ Kembangan-Chai Chee Blk 32 (CC),461032,1.3237,103.925
ST0237,PCF Sparkletots Preschool @ Kembangan-Chai Chee Blk 326 (KN),400326,1.3272,103.9038
ST0084,PCF Sparkletots Preschool @ Kembangan-Chai Chee Blk 341 (CC),400341,1.3267,103.9016
ST0206,PCF Sparkletots Preschool @ Sengkang West Blk 351 (EY),540351,1.3933,103.8866
ST0171,PCF Sparkletots Preschool @ Teck Ghee Blk 319 (CC),560319,1.3651,103.8474
ST0102,PCF SPARKLETOTS PRESCHOOL @ TECK GHEE BLK 310A (CC),561310,1.3648,103.8438
ST0016,PCF SPARKLETOTS PRESCHOOL @ JALAN KAYU BLK 517 (CC),550517,1.3713,103.8741
ST0183,PCF SPARKLETOTS PRESCHOOL @ KAMPONG CHAI CHEE BLK 409 (CC),460409,1.3281,103.9329
ST0251,PCF Sparkletots Preschool @ Kampong Chai Chee Blk 775 (KN),470775,1.3366,103.9359
ST0287,PCF Sparkletots Preschool @ Jalan Kayu Blk 518 (DS),550518,1.3716,103.8741
ST0289,PCF Sparkletots Preschool @ Teck Ghee Blk 301 (DS),560301,1.3674,103.8459
ST0243,PCF Sparkletots Preschool @ Kampong Chai Chee Blk 135 (KN),460135,1.3287,103.9365
ST0075,PCF SPARKLETOTS PRESCHOOL @ KAMPONG CHAI CHEE BLK 424 (CC),460424,1.3284,103.9275
PT9094,NURTURESTARS CHILD CARE,649848,1.335,103.7063
PT9056,LITTLE GREENHOUSE @ JW 502 PTE. LTD.,640502,1.3505,103.7182
RC1630,YMCA CHILD DEVELOPMENT CENTRE,670510,1.3876,103.769
PT9025,WHIZLAND MONTESSORI PTE. LTD.,680151,1.3784,103.7573
PT8720,TODDLERS' COTTAGE,380118,1.32,103.8874
PT9345,SPRING BRAINY KIDZ (SIMS) PTE LTD,388410,1.3183,103.8813
ST0126,PCF SPARKLETOTS PRESCHOOL @ CHUA CHU KANG BLK 19 (CC),680019,1.3794,103.7529
ST0108,PCF SPARKLETOTS PRESCHOOL @ PUNGGOL COAST BLK 602 (CC),820602,1.4033,103.9073
ST0167,PCF Sparkletots Preschool @ Yio Chu Kang Blk 611 (CC),560611,1.3783,103.8373
ST0106,PCF SPARKLETOTS PRESCHOOL @ ULU PANDAN BLK 15 (CC),270015,1.3091,103.7884
ST0294,PCF Sparkletots Preschool @ Yio Chu Kang Blk 644 (EY),560644,1.3791,103.8409
ST0014,PCF SPARKLETOTS PRESCHOOL @ ADMIRALTY BLK 585 (CC),730585,1.4293,103.7954
ST0368,PCF Sparkletots Preschool @ Punggol Coast Blk 676B (DS),822676,1.4049,103.9102
ST0156,PCF Sparkletots Preschool @ Brickland Blk 489B (CC),682489,1.3757,103.7396
ST0196,PCF SPARKLETOTS PRESCHOOL @ PUNGGOL COAST BLK 326 (CC),820326,1.4131,103.8995
ST0114,PCF Sparkletots Preschool @ Punggol Coast Blk 303A (DS),821303,1.4038,103.9058
ST0338,PCF Sparkletots Preschool @ Admiralty Blk 581 (DS),730581,1.4299,103.7964
ST0328,PCF Sparkletots Preschool @ Chua Chu Kang Blk 10 (KN),680010,1.3805,103.7552
ST0195,PCF SPARKLETOTS PRESCHOOL @ HONG KAH NORTH BLK 447 (CC),650447,1.3527,103.7398
ST0030,PCF SPARKLETOTS PRESCHOOL @ HONG KAH NORTH BLK 419 (CC),650419,1.3619,103.7461
NT0579,MY FIRST SKOOL,681684,1.404,103.7468
NT0577,MY FIRST SKOOL,677725,1.3868,103.7725
PT8924,LITTLE FOOTPRINTS PRESCHOOL PTE. LTD.,688236,1.3751,103.7523
PT9017,Little Footprints Preschool Pte Ltd,680533,1.3921,103.7431
PT8534,LITTLE EXPLORERS COVE @ BOON LAY,649883,1.3476,103.7112
PT6170,LEARNING VISION @ WORK PTE LTD,680475,1.378,103.739
PT9391,HARMONI PRESKOOL @ BUANGKOK PTE LTD,542278,1.3823,103.8906
PT8827,GREENFIELD MONTESSORI CHILD CARE PTE. LTD.,688999,1.3779,103.7469
PT9741,Charis Montessori @ Elim,328182,1.3238,103.8644
PT9260,LITTLE FOOTPRINTS PRESCHOOL PTE. LTD.,128531,1.3052,103.765
PT9593,Living Sanctuary Kindergarten,538728,1.356,103.8914
PT9218,ACTIVE LEARNERS CHILD CARE PRIVATE LIMITED,731306,1.4301,103.7751
PT9499,K-JOY EDUCARE PTE LTD,730768,1.4457,103.7982
PT9148,STAR LEARNERS @ WOODLANDS CIRCLE PTE. LTD.,731764,1.4456,103.7968
WP1108,CARPE DIEM LITTLE GREEN HOUSE PTE. LTD.,737853,1.4348,103.8028
PT9110,BRIGHT SPARKS CHILDCARE LLP,730401,1.4304,103.7728
PT9738,Huda Childcare (WRR) Pte Ltd,737853,1.4348,103.8028
PT9399,BRAINY BUNCH WOODLANDS PTE LTD,737854,1.435,103.8048
PT9530,Primrose Preschool,737856,1.4380000000000002,103.807
PT8848,LITTLE TREASURES CHILDCARE(WOODLANDS) PTE. LIMITED,730848,1.4418,103.7918
PT6530,PHYLLIS' RICCIA SCHOOL PTE LTD,738229,1.4280000000000002,103.7809
PT5930,MODERN MONTESSORI PRESCHOOL CENTRE,730750,1.4444,103.7939
PT9689,Brilliant Tots Junior Pte Ltd,599747,1.3438,103.7748
PT9582,Catholic Kindergarten,549404,1.3598,103.8822
PT9603,ZULFA KINDERGARTEN @ JURONG WEST,640717,1.3430000000000002,103.6975
PT9402,CHESTON MONTESSORI PRESCHOOLS PTE LTD,129880,1.3188,103.7682
ST0021,PCF SPARKLETOTS PRESCHOOL @ NANYANG BLK 922 (CC),640922,1.3391,103.6893
PT9660,TOTS TOWN PRESCHOOL @ YISHUN,760102,1.4306,103.8288
PT9660,TOTS TOWN PRESCHOOL @ YISHUN,760102,1.43275,103.82858
RC1712,CHEN SU LAN METHODIST CHILDREN'S HOME (CHILD CARE DIVISION),556057,1.3686,103.8619
PT8140,LOVESHINE CHILDCARE PTE. LTD.,520473,1.3594,103.9532
ST0322,PCF Sparkletots Preschool @ Bukit Panjang Blk 226 (EY),670226,1.3752,103.7724
PT8741,NURTURESTARS PTE. LTD.,528882,1.3447,103.9417
PT9444,HARMONI PRESKOOL @ YISHUN PTE LTD,760676,1.4216,103.8418
PT9777,Bedok Methodist Preschool,469371,1.3238,103.9539
PT9143,EDUGARDEN DISCOVERY PTE. LTD.,640429,1.3519,103.7245
NT0360,MY FIRST SKOOL,760612,1.4204,103.8354
PT5540,Sunflower Preschool @ PR Town Park Pte Ltd,510553,1.368,103.9528
PT9587,Callidus Preschool,570229,1.3576,103.846
ST0132,PCF SPARKLETOTS PRESCHOOL @ WOODLANDS BLK 853 (CC),730853,1.4394,103.7931
PT8655,LITTLE TREE HOUSE @ PASIR RIS PTE. LTD.,518645,1.3804,103.9444
PT9302,SUNFLOWER PRESCHOOL @ BEDOK PTE LTD,460215,1.3261,103.9335
PT9422,LEARNING VISION @ WORK PTE LTD,486042,1.3382,103.9652
PT9006,Canberra Academy Pte. Ltd.,488718,1.3343,103.9474
PT8110,STAR LEARNERS @ SIMEI PTE. LTD.,489480,1.3378,103.955
PT6540,BLOOM EDUCARE PTE LTD,486880,1.3469,103.9627
PT6860,EUREKA SCHOOLHOUSE PTE LTD,487127,1.3385,103.9577
PT6400,MY JOLLY EDUCARE PTE LTD,487274,1.3395,103.9588
PT8744,JOSIAH MONTESSORI KINDER-CARE,486025,1.3335,103.9655
PT8636,EAGER BEAVER SCHOOLHOUSE 2 PTE. LTD.,159346,1.2857,103.808
PT9389,CARPE DIEM STARLETS SPARKLE PTE. LTD.,150167,1.2826,103.8186
PT8716,THE LITTLE SKOOL-HOUSE INTERNATIONAL PTE LTD,159964,1.2879,103.7999
PT9196,MULBERRY LEARNING CENTRE ALEXANDRA PTE LTD,159506,1.2884,103.8119
NT0510,MY FIRST SKOOL,150106,1.2894,103.8223
RC1715,HEALTHY START CHILD DEVELOPMENT CENTRE,152120,1.2828,103.8226
PT8803,THE LITTLE SKOOL-HOUSE INTERNATIONAL PTE LTD,159919,1.291,103.8253
PT9398,Little Gems Preschool @ Redhill Pte Ltd,159471,1.285,103.8116
PT8970,BRIDGING STARS CHILDCARE PTE. LTD.,150123,1.2869,103.804
PT9054,BLOOMBERRY BABIES & KIDS PTE. LTD.,159345,1.2849,103.8085
PT9231,MAPLE BEAR PLAYHOUSE PTE. LTD.,159948,1.2913,103.8074
PT9032,LEARNING VISION @ WORK PTE. LTD.,119082,1.2932,103.7844
EB0008,E-BRIDGE PRE-SCHOOL PTE. LTD.,370017,1.3298,103.8886
ST0309,PCF Sparkletots Preschool @ Nanyang Blk 934 (KN),640934,1.3422,103.6887
PT9417,CARPE DIEM SCHOOLHOUSE PTE LTD,310131,1.3379,103.8433
PT9042,Learning Jungle Kembangan,417731,1.3254,103.9119
PT9236,ETONHOUSE PRE-SCHOOL PTE LTD,307966,1.3172,103.841
ST0057,PCF Sparkletots Preschool @ Cheng San-Seletar Blk 502 (EY),560502,1.3757,103.8499
PT9743,MapleBear Early Development Pte Ltd,609935,1.3274,103.7492
RC1710,MACPHERSON SHENG HONG CHILDCARE CENTRE,348537,1.3305,103.8744
PT9125,TOTS N TOYS PTE LTD,609965,1.328,103.7549
RC0820,IYAD-PERDAUS CHILD DEVELOPMENT CENTRE,600241,1.3415,103.743
PT9213,CHERRYBROOK PRESCHOOL THOMSON PTE. LTD.,576416,1.3537,103.8293
PT9090,Little Footprints Preschool Pte Ltd,470743,1.3385,103.9218
PT8635,NURTURESTARS PTE. LTD.,98803,1.2776,103.817
PT8793,SHAWS CDLC @ KATONG PRIVATE LIMITED,439738,1.3059,103.8952
PT9093,HI-5 HOUSE OF LEARNING(HOL) PRESCHOOL@JOO SENG PTE. LTD.,360017,1.3362,103.8812
PT9394,THE LITTLE SKOOL-HOUSE INTERNATIONAL PTE. LTD.,18989,1.2823,103.8526
ST0256,PCF Sparkletots Preschool @ Changi Simei Blk 119 (KN),520119,1.3438,103.9519
ST0257,PCF Sparkletots Preschool @ Changi Simei Blk 131 (KN),520131,1.3455,103.954
ST0271,PCF Sparkletots Preschool @ Bedok Reservoir-Punggol Blk 414 (DS),530414,1.3749,103.896
ST0366,PCF Sparkletots Preschool @ Bedok Reservoir-Punggol Blk 475C (DS),533475,1.3752,103.9
ST0162,PCF Sparkletots Preschool @ Bedok Reservoir-Punggol Blk 508 (CC),530508,1.3717,103.8877
ST0250,PCF Sparkletots Preschool @ Bedok Reservoir-Punggol Blk 713 (DS),470713,1.3363,103.9224
ST0218,PCF Sparkletots Preschool @ Henderson-Dawson Blk 124A (KN),151124,1.2849,103.8228
ST0163,PCF Sparkletots Preschool @ Tanjong Pagar-Tiong Bahru Blk 125 (CC),160125,1.2836,103.8281
ST0219,PCF Sparkletots Preschool @ Tanjong Pagar-Tiong Bahru Blk 130 (KN),160130,1.2804,103.8293
ST0210,PCF Sparkletots Preschool @ Tanjong Pagar-Tiong Bahru Blk 1E (KN),85501,1.2766,103.8412
RC0490,YMCA CHILD DEVELOPMENT CENTRE-BUKIT BATOK,650225,1.3485,103.7526
PT9084,JOSIAH BABIES (APERIA),339511,1.3097,103.8642
PT8927,KIDZ KINGDOM PTE LTD,419730,1.3169,103.9028
PT8958,MINDCHAMPS PRESCHOOL @ ZHONGSHAN PARK PTE. LTD.,329983,1.3271,103.8465
PT8693,Juniors Pte Ltd,573954,1.3602,103.8338
PT9645,Ripples Montessori Kindergarten,488676,1.3335,103.9482
PT4840,PEBBLE PLACE DEVELOPMENT CENTRE,437565,1.3131,103.8928
WP1102,THE LITTLE SKOOL-HOUSE INTERNATIONAL PTE LTD,768828,1.4240000000000002,103.8383
PT8713,NURTURESTARS PTE. LTD.,769027,1.4243,103.8409
PT8774,LITTLE GREENHOUSE CHILDCARE & DEVELOPMENT PTE. LTD.,760832,1.4147,103.8347
PT7370,SUNNYTOTS SCHOOLHOUSE,760658,1.4219,103.8395
EB0004,E-BRIDGE PRE-SCHOOL PTE. LTD.,760504,1.4184,103.8446
PT9192,SUNFLOWER PRESCHOOL @ NSE PTE. LTD.,768893,1.4309,103.8385
PT9160,SAFARI HOUSE PRESCHOOL YISHUN,768161,1.4384,103.8432
PT8743,SPRING BRAINY KIDZ PTE. LTD.,760716,1.4262,103.8275
PT8610,JUST KIDS @ YISHUN PTE. LTD.,760290,1.4361,103.8362
PT8414,LITTLE FOOTPRINTS SCHOOLHOUSE (YISHUN) PTE. LTD.,761701,1.4299,103.8279
SK0004,SKOOL4KIDZ CENTRE,761430,1.4214,103.8486
NT0180,MY FIRST SKOOL,761796,1.4194,103.8331
PT5830,EMMANUEL CHILD EDUCARE,769646,1.4412,103.8259
NT0572,MY FIRST SKOOL,762509,1.4138,103.8401
PT9188,MINDCHAMPS PRESCHOOL @ YISHUN PTE. LTD.,768090,1.4368,103.8436
PT8001,THE LITTLE SKOOL-HOUSE INTERNATIONAL PTE LTD,769162,1.4121,103.845
PT9165,First Steps Preschool @ Yishun,768090,1.4368,103.8436
PT9208,THE GLITTER RAINBOW SKOOL PTE. LTD.,768159,1.4362,103.843
PT9205,LITTLE PETALS PRESCHOOL PTE. LTD.,768090,1.4368,103.8436
YM0159,MY WORLD PRESCHOOL LTD.,760270,1.4374,103.84
RC0140,LUTHERAN CHILD CARE CENTRE,760124,1.4346,103.8311
RC1060,KIDSVILLE CHILD CARE & DEVELOPMENT CENTRE,760217,1.4326,103.8363
RC0440,KIDSVILLE CHILD CARE & DEVELOPMENT CENTRE,760201,1.4306,103.8381
PT2030,AVERBEL CHILD DEVELOPMENT CENTRE PTE LTD,760742,1.4297,103.8331
PT9544,APPLE TREE PLAYHOUSE PTE LTD,768019,1.4279,103.8362
PT5560,ANGEL CARE CENTRE PTE LTD,760626,1.4175,103.8357
PT9573,HANIS Montessori Kindergarten (Woodlands),730424,1.4273,103.7749
PT8501,IMAN CHILDCARE (SIMEI) PTE. LTD.,520154,1.3448,103.957
PT5890,MARIS KIDZ SCHOOLHOUSE,520165,1.3455,103.9591
ST0269,PCF Sparkletots Preschool @ Paya Lebar Blk 125 (KN),530125,1.3524,103.8865
ST0062,PCF SPARKLETOTS PRESCHOOL @ BUKIT GOMBAK BLK 512 (CC),650512,1.354,103.7528
RC1745,LITTLE DOLPHINS PLAYSKOOL,120714,1.3043,103.7617
SK0022,SKOOL4KIDZ CENTRE,522606,1.3623,103.9374
RC1858,Little Shepherds' Schoolhouse@St Anne's Church,548593,1.3917,103.9018
PT9513,SDM CHILDCARE CENTRE PTE. LTD.,570505,1.3489,103.8487
RC1778,NEW LIFE COMMUNITY SERVICES,677899,1.3804,103.7602
PT1800,PAT'S SCHOOLHOUSE PTE. LTD.,309763,1.3176,103.8399
SK0009,SKOOL4KIDZ CENTRE,463807,1.328,103.9232
SK0006,SKOOL4KIDZ CENTRE,521524,1.3584,103.9389
PT3640,The Gardner Preschool,425500,1.3118,103.9106
PT8854,LITTLE GREENHOUSE @ JW PTE. LTD.,640478,1.3474,103.724
RC1814,An-Nur Mosque Kindergarten,739983,1.4407,103.7719
ST0130,HAMPTON PRE-SCHOOL TANJONG PAGAR,160126,1.2825,103.8295
RC0450,PU TI CHILD CARE CENTRE,380104,1.3201,103.8828
PT8939,LITTLE GREENHOUSE @ WOODLANDS PTE. LTD.,730161,1.4333,103.7737
RC1807,Kay Poh Road Baptist Kindergarten,248963,1.2966,103.8291
RC1802,DARUL MAKMUR MOSQUE KINDERGARTEN,769099,1.4369,103.8343
WP0732,KINDERLAND PRESCHOOL,59764,1.2876,103.8441
SK0005,SKOOL4KIDZ CENTRE,673636,1.3874,103.7591
SK0003,SKOOL4KIDZ CENTRE,731628,1.435,103.8009
PT8412,LITTLE GREENHOUSE @ BUKIT BATOK PTE LTD,650373,1.3589,103.7504
RC1150,MORIAH CHILD CARE AND DEVELOPMENT CENTRE,529974,1.3434,103.9573
PT8938,CAMBRIDGE CDC @ DAIRY FARM PTE. LTD.,678493,1.368,103.7695
PT8831,JUDE CHILD CARE AND CHILD DEVELOPMENT CENTRE,510104,1.368,103.9587
PT7880,LITTLE GREENHOUSE @ S540 PTE LTD,550540,1.3746,103.8726
RC1813,AL-MUTTAQIN MOSQUE KINDERGARTEN,569844,1.3705,103.8459
ST0379,PCF Sparkletots Preschool @ Toa Payoh East Blk 261A (EY),311261,1.3337,103.8557
ST0099,PCF SPARKLETOTS PRESCHOOL @ PIONEER BLK 987D (CC),644987,1.3366,103.6954
PT9407,STAR LEARNERS @ TOA PAYOH PTE LTD,310259,1.3339,103.8576
PT3300,LITTLE GREENHOUSE @ S553 PTE LTD,550553,1.3717,103.8712
NT0592,MY FIRST SKOOL,370082,1.3243,103.8901
WP1112,THE LITTLE SKOOL-HOUSE INTERNATIONAL PTE. LTD.,738964,1.4449,103.7842
WP1111,SAFARI HOUSE PRESCHOOL TOA PAYOH,310530,1.3323,103.8473
WP0733,LEARNING VISION @ WORK PTE. LTD.,819642,1.362,103.9903
RC1786,SUPER TALENT CHILDCARE LTD,370093,1.3227,103.8881
RC1783,SUPER TALENT CHILDCARE LTD,164018,1.2857,103.8268
RC1772,YMCA CHILD DEVELOPMENT CENTRE (TOA PAYOH),310044,1.3364,103.854
PW0122,GROW & GLOW @ PASIR RIS 51 CENTRE,510561,1.367,103.9509
PT9529,STAR LEARNERS @ ONE-NORTH PTE LTD,139940,1.2957,103.7875
PT9526,SDM CHILDCARE CENTRE PTE. LTD.,689464,1.3769999999999998,103.7456
PT9512,THE LITTLE SKOOL-HOUSE INTERNATIONAL PTE LTD,138675,1.3052,103.7908
PT9501,SUNFLOWER PRESCHOOL @ BEDOK SOUTH PTE LTD,460159,1.319,103.9456
PT9374,STAR LEARNERS @ UBI PTE LTD,400315,1.3294,103.9033
PT9359,LEARNING VISION @ WORK PTE LTD,118523,1.2773,103.7965
PT9255,SUNFLOWER PRESCHOOL @ FRANKEL PTE LTD,458177,1.3148,103.9187
PT9189,STAR LEARNERS @ TAMPINES PTE. LTD.,520241,1.3546,103.9471
PT9186,CARPE DIEM ACE LEARNERS PTE. LTD.,659554,1.3439,103.7534
PT9169,ICHIBAN MONTESSORI KIDDIE KOLLEGE PTE. LTD.,670631,1.3866,103.7603
PT9127,BUSY BEES SINGAPORE PTE.LTD,554910,1.3745,103.8691
PT9118,SAFARI HOUSE PRESCHOOL WOODLANDS,737853,1.4348,103.8028
PT9117,BUSY BEES SINGAPORE PTE LTD,542327,1.3956,103.8886
PT9099,STAR LEARNERS @ NORTH EAST PTE. LTD.,544964,1.3963,103.8866
PT9095,JUST KIDS @ JURONG WEST PTE. LTD.,643667,1.3411,103.7023
PT9087,STAR LEARNERS PTE LTD,426165,1.3165,103.906
PT9072,STAR LEARNERS @ JURONG PTE. LTD.,609964,1.3275,103.7535
PT9048,STAR LEARNERS @ BEDOK PTE. LTD.,460064,1.3242,103.9399
PT9031,SPRING BRAINY KIDZ GROUP PTE. LTD.,400306,1.3299,103.9019
PT8979,LEARNING VISION @ WORK PTE. LTD.,269735,1.3256,103.8009
PT8879,NURTURESTARS CHILD CARE,319387,1.3298,103.8543
PT8767,STAR LEARNERS @ BISHAN CENTRAL PTE. LTD.,570510,1.3489,103.8497
PT8709,GENIUS HIVE PRE-SCHOOL PTE. LTD.,69534,1.2805,103.8492
PT8529,STAR LEARNERS @ PASIR RIS PTE. LTD.,519282,1.3823,103.9424
PT8525,CARPE DIEM KINDERACE PTE. LTD.,650626,1.3517,103.749
PT8443,CARPE DIEM KINDERCARE PTE. LTD.,470108,1.3302,103.9094
PT8434,CARPE DIEM FIRST YEARS PTE. LTD.,510129,1.3665,103.9556
PT8290,CARPE DIEM CHILDCARE PTE. LTD.,650318,1.3609,103.7472
PT7250,JUST KIDS LEARNING PLACE PTE LTD,650159,1.3486,103.7427
PT6940,SUNFLOWER CHILDCARE & DEVELOPMENT CENTRE PTE LTD,469627,1.3334,103.9269
PT5530,EQ EDUCARE PTE LTD,680309,1.3851,103.7457
PT4510,ACE @ WORK EDUCARE PTE LTD,602288,1.3389,103.7429
PT3000,BRIGHT KIDS @ PASIR RIS PTE LTD,510764,1.3763,103.9345
PT9007,Kiddiwinkie Schoolhouse Singapore Pte Ltd,574244,1.3433,103.8379
PT9238,INSPIRE KIDS INTERNATIONAL (WOODLANDS) LLP,730851,1.4402,103.7925
PT9354,DISCOVERY KIDZ EMPIRE PTE. LTD.,259225,1.3196,103.8117
PT9433,MAPLEBEAR DISCOVERY PTE LTD,600134,1.3339,103.7388
PT9400,BLOSSOM BLISSPARKLE CENTRE PTE LTD,129040,1.3217,103.7574
RC1876,Muhammadiyah Kindergarten,419006,1.3230000000000002,103.9154
RC1797,GALILEE KINDERGARTEN,609338,1.3218,103.7462
RC1863,Bethel Kinderlites,380114,1.3217,103.8868
ST0040,PCF SPARKLETOTS PRESCHOOL @ WOODLANDS BLK 677 (CC),730677,1.4394,103.8017
PT9447,MAPLEBEAR LEARNING JOURNEY PTE. LTD.,574469,1.3755,103.8325
PT8762,Shooting Star Preschool Pte Ltd,570305,1.3501,103.8387
PT8945,ETONHOUSE PRE-SCHOOL PTE LTD,398008,1.3085,103.879
NT0310,MY FIRST SKOOL,510637,1.3768,103.9403
PT8656,ODYSSEY THE GLOBAL PRESCHOOL PTE. LTD.,268669,1.3284,103.7966
WP0310,CREATIVE O PRESCHOOLERS' BAY,609921,1.3288,103.7461
PT9092,HAPPY KIDS CHILDCARE & DEVELOPMENT CENTRE,521882,1.352,103.9335
PT9371,KINGDOM EDUCATION PTE. LTD.,596152,1.344,103.7695
PT3150,BUMBLE BEE CHILD CARE CENTRE,730369,1.4334,103.7874
RC1899,Blue Lion Preschool,456532,1.3134,103.93
PT9145,ORION PRESCHOOL,436959,1.3129,103.8937
PT9735,Charis Montessori @ BLC,469315,1.3211,103.9381
PT9668,GATE Junior Preschool,467905,1.3224,103.9499
RC1866,Zion Bishan Kindergarten,579792,1.3471,103.8549
PT9097,ISMART MONTESSORI,670256,1.379,103.773
PT9541,BRILLIANT TOTS @ HOUGANG PTE. LTD,347836,1.3288,103.8693
PT9395,BRAINY BEE JUNIOR EDUCATION PTE. LTD.,367904,1.3338,103.8822
PT9647,Early Years Montessori,597475,1.3258,103.7667
PT9696,KIDSCAMPUS (CHANGI SIMEI) PTE LTD,529915,1.3449,103.9552
PT9075,GLOBAL TOTS PTE. LTD.,278418,1.3103,103.7993
PT9651,MapleBear Gracefields Pte Ltd,248668,1.3006,103.8245
PT3870,LEARNINGHILL PASIR RIS PTE LTD,519497,1.3761,103.9535
PT7180,RAINBOW CHILDCARE PTE LTD,640221,1.3464,103.7125
PT9033,BLOSSOM FANTASIA CENTRE PTE. LTD.,508668,1.3616,103.9689
PT8901,CAMBERLEY INTERNATIONAL PRE-SCHOOL PRIVATE LIMITED,549405,1.3602,103.881
PT8684,POSSO PRESCHOOL @ WEST COAST RISE PTE LTD,127473,1.3157,103.7536
PT9405,MAPLEBEAR EARLY ACHIEVERS PTE LTD,118524,1.2781,103.7968
PT8508,THE LITTLE SKOOL-HOUSE INTERNATIONAL PTE LTD,279621,1.3121,103.7896
PT8458,MODERN MONTESSORI PRESCHOOL CENTRE,579598,1.3557,103.8323
PT2850,KANOOKA SCHOOL HOUSE PTE LTD,640852,1.3474,103.6928
ST0159,PCF SPARKLETOTS PRESCHOOL @ BUKIT PANJANG BLK 254 (EY),670254,1.3796,103.7739
ST0321,PCF Sparkletots Preschool @ Bukit Panjang Blk 111 (EY),670111,1.3782,103.7684
RC1853,Sri Sathya Sai Kindergarten,510716,1.3831,103.9368
ST0077,PCF Sparkletots Preschool @ Toa Payoh East Blk 232 (CC),310232,1.3376,103.8588
PT9387,MINDCHAMPS CHINESE PRESCHOOL @ CECIL ST PTE LTD,69534,1.2805,103.8492
NT0473,MY FIRST SKOOL,541295,1.3983,103.8993
ST0186,PCF SPARKLETOTS PRESCHOOL @ BRADDELL HEIGHTS BLK 246 (CC),550246,1.3519,103.8697
NT0561,MY FIRST SKOOL,644197,1.3436,103.7139
NT0488,MY FIRST SKOOL,510487,1.3749,103.9606
NT0555,MY FIRST SKOOL,528833,1.3427,103.953
NT0509,MY FIRST SKOOL,310055,1.3374,103.8512
PT9233,HUNDRED THOUGHTS PTE LTD,119962,1.2752,103.8013
NT0230,MY FIRST SKOOL,570245,1.3603,103.844
ST0155,PCF SPARKLETOTS PRESCHOOL @ NANYANG BLK 825 (CC),640825,1.3462,103.6932
ST0119,PCF SPARKLETOTS PRESCHOOL @ KAKI BUKIT BLK 525 (CC),460525,1.3347,103.9292
NT0499,MY FIRST SKOOL,440018,1.3032,103.9143
ST0022,PCF SPARKLETOTS PRESCHOOL @ CHONG PANG BLK 142 (CC),760142,1.4308,103.8306
ST0305,PCF Sparkletots Preschool @ Jurong Central Blk 490 (KN),640490,1.3496,103.7272
NT0190,MY FIRST SKOOL,310248,1.3314,103.8559
RC1805,Ar-Raudhah Mosque Kindergarten,659919,1.3517,103.756
NT0559,MY FIRST SKOOL,730678,1.44,103.8013
NT0240,MY FIRST SKOOL,550140,1.3684,103.875
NT0535,MY FIRST SKOOL,641681,1.3444,103.7052
NT0576,MY FIRST SKOOL,643698,1.3403,103.7078
NT0593,My First Skool,544576,1.38968,103.90917
NT0494,MY FIRST SKOOL,650291,1.3437,103.7561
NT0551,MY FIRST SKOOL,330049,1.3245,103.8664
ST0006,PCF SPARKLETOTS PRESCHOOL @ CASHEW BLK 183 (CC),670183,1.38,103.763
PT8723,RAFFLES HOUSE @ PAYA LEBAR PRIVATE LIMITED,409046,1.3312,103.8883
ST0161,PCF Sparkletots Preschool @ Toa Payoh East Blk 247 (CC),310247,1.3311,103.8553
ST0110,PCF SPARKLETOTS PRESCHOOL @ BUONA VISTA BLK 32 (CC),270032,1.3062,103.7969
PT9028,DA LITTLE PRESCHOOL AT CECIL PRIVATE LIMITED,69541,1.2793,103.8484
PT8374,PAT'S SCHOOLHOUSE PTE. LTD.,228126,1.3039,103.848
PT8388,PAT'S SCHOOLHOUSE PTE. LTD.,423935,1.3062,103.9093
ST0332,PCF Sparkletots Preschool @ Yew Tee Blk 682 (KN),680682,1.4025,103.7453
ST0093,PCF SPARKLETOTS PRESCHOOL @ PIONEER BLK 694 (CC),640694,1.3431,103.7069
NT0110,MY FIRST SKOOL,310192,1.3317,103.8505
PT6560,LORNA WHISTON PRE-SCHOOL,117783,1.2857,103.7945
PT8659,CARPE DIEM KIDS ACADEMY @ WATTEN PTE. LTD.,287421,1.3277,103.807
NT0524,MY FIRST SKOOL,311014,1.3363,103.8583
PT8809,HUDA CHILDCARE PTE. LTD.,737853,1.4348,103.8028
PT9598,Dreamkids Kindergarten @ East Gate Pte Ltd,425080,1.3098,103.9078
PT8737,PAT'S SCHOOLHOUSE PTE. LTD.,237994,1.2934,103.832
PT8909,PRESCHOOL FOR MULTIPLE INTELLIGENCES INTERNATIONAL PTE. LTD.,416923,1.3215,103.9099
NT0503,MY FIRST SKOOL,520803,1.3452,103.9377
PT9736,CHATSWORTH PRESCHOOL,129781,1.2999,103.7685
PT9383,MULBERRY LEARNING CENTRE CENTRAL PTE LTD,68815,1.2777,103.8489
RC0810,CHEE HOON KOG CHILD CARE CENTRE,460520,1.3305,103.9281
PT8980,First Steps Preschool @ East Coast,440089,1.3013,103.9065
PT9737,Pink Tower Montessori Pte Ltd,423731,1.3065,103.9053
PT9703,The Little House (Montessori) Pte Ltd,287994,1.3387,103.7933
PT9731,BrainFit School House Pte Ltd,329983,1.3271,103.8465
PT9720,Wee Care Kindergarten Pte Ltd,238698,1.2974,103.8432
ST0115,PCF SPARKLETOTS PRESCHOOL @ HENDERSON-DAWSON BLK 59 (CC),142059,1.2932,103.8113
PT2480,LITTLE FAIRYLAND CHILD CARE & DEVELOPMENT CENTRE,429063,1.3096,103.9137
EB0018,E-Bridge Pre-School Pte Ltd,544709,1.3905,103.8969
PT9740,MULBERRY LEARNING CENTRE@FUSIONOPOLIS PTE. LTD.,138628,1.2981,103.7901
PT9228,ISLANDER PRE-SCHOOL PTE LTD,99982,1.2484,103.8284
NT0501,MY FIRST SKOOL,380128,1.3183,103.8878
PT8907,TWINKLEKIDZ ACADEMY PTE. LTD.,458493,1.3198,103.9214
ST0063,PCF SPARKLETOTS PRESCHOOL @ SIGLAP BLK 172 (CC),460172,1.3207,103.9447
ST0039,PCF SPARKLETOTS PRESCHOOL @ BRADDELL HEIGHTS BLK 335 (CC),550335,1.3494,103.871
ST0038,PCF SPARKLETOTS PRESCHOOL @ CHONG PANG BLK 288 (CC),760288,1.4399,103.8376
PT5300,ODYSSEY THE GLOBAL PRESCHOOL PTE LTD,436559,1.3019999999999998,103.8876
NT0549,MY FIRST SKOOL,670487,1.3892,103.7711
NT0250,MY FIRST SKOOL,600209,1.3378,103.7401
NT0280,MY FIRST SKOOL,522487,1.3608,103.9579
PT9646,Little Leader Kindergarten,760102,1.4306,103.8288
PT9646,Little Leader Kindergarten,760102,1.43275,103.82858
RC1888,BETHESDA (DEPOT WALK) PTE LTD,109590,1.2819,103.8142
RC1869,Bethesda (Bedok-Tampines) Kindergarten,469717,1.3312,103.9347
RC1838,New Life Kindergarten,739147,1.445,103.7774
NT0558,MY FIRST SKOOL,640756,1.3493,103.7007
ST0268,PCF Sparkletots Preschool @ Paya Lebar Blk 23 (KN),530023,1.3649,103.8907
ST0143,PCF SPARKLETOTS PRESCHOOL @ BEDOK RESERVOIR-PUNGGOL BLK 470C (CC),533470,1.3785,103.9008
ST0046,PCF SPARKLETOTS PRESCHOOL @ PAYA LEBAR BLK 221 (CC),530221,1.3566,103.8837
ST0270,PCF Sparkletots Preschool @ Hougang Blk 328 (DS),530328,1.3687,103.8966
PT9328,CREATIVELAND CHILDCARE AND DEVELOPMENT CENTRE@YEW TEE PTE LTD,680634,1.3966,103.7497
ST0302,PCF Sparkletots Preschool @ Boon Lay Blk 207 (DS),640207,1.3466,103.7136
ST0342,PCF Sparkletots Preschool @ Woodlands Blk 875 (KN),730875,1.4425,103.7896
ST0323,PCF Sparkletots Preschool @ Bukit Panjang Blk 422 (KN),670422,1.385,103.7697
ST0306,PCF Sparkletots Preschool @ Boon Lay Blk 631 (KN),640631,1.3432,103.7002
ST0303,PCF Sparkletots Preschool @ Boon Lay Blk 262 (KN),640262,1.3448,103.7073
ST0175,PCF SPARKLETOTS PRESCHOOL @ CASHEW (CC),678278,1.3784,103.7631
ST0146,PCF SPARKLETOTS PRESCHOOL @ BUKIT PANJANG BLK 412 (CC),670412,1.3829,103.7683
ST0137,PCF SPARKLETOTS PRESCHOOL @ WOODLANDS BLK 604 (CC),730604,1.4371,103.7964
PT9314,KIDDY UP PTE LTD,188553,1.2976,103.8522
RC1830,Little Shepherds' Schoolhouse@Church of St Francis of Assisi-JW,649368,1.3513,103.7164
PT8515,KIDZ KULTURE SCHOOLHOUSE PTE. LTD.,470743,1.3385,103.9218
PT9315,Little Kinder Montessori @ PP LLP,119759,1.28,103.789
PT8641,CARPE DIEM KIDZ UNIVERSE PTE. LTD.,118282,1.2853,103.797
PT9035,INNATE MONTESSORI @ SCIENCE PARK2 PTE. LTD.,117674,1.2865,103.7819
PT8727,MINDCHAMPS PRESCHOOL @ MBC PTE. LTD.,117439,1.2748,103.7991
PT9403,IMAN CHILDCARE (BUKIT BATOK) PTE LTD,650277,1.3474,103.758
RC1826,Little Shepherds' Schoolhouse@Church of the Holy Family,429509,1.3068,103.9069
RC1370,LITTLE BEEZ PLAYSKOOL,527491,1.3630000000000002,103.9544
PT9650,Ichiban Nurtureland Pte Ltd,680704,1.3905,103.7457
PT9744,LITTLE MOPPETS PRESCHOOL @ TAMPINES PTE LTD,522497,1.3583,103.9584
PT9695,Joyful Jenius Preschool,552542,1.3737,103.8714
PT9610,AL-NASRY@SENGKANG SOUTH KINDERGARTEN,530552,1.3788,103.8904
PT5670,KIDZMONTE CHILD DEVELOPMENT CENTRE,507528,1.3621,103.9634
PT8777,SUNLIFE EDUCARE PTE LTD,417943,1.3367,103.9107
PT9052,MY LITTLE GEMS PRIVATE LIMITED,419500,1.3206,103.9055
PT9488,ACES CHAMPION ENTERPRISE (SINGAPORE) LLP,416672,1.3192,103.9081
PT8748,AMAZING STAR MONTESSORI HOUSE (UBI),400306,1.3299,103.9019
PT9198,MAPLEBEAR SCHOOLHOUSE PTE. LTD.,409839,1.3194,103.8975
PT8736,SAFARI HOUSE PRESCHOOL,139659,1.3042,103.7792
PT9716,GUG Preschool @ Katong Pte Ltd,428751,1.3038,103.9029
PT9725,AL-NASRY CHILDCARE PTE. LTD.,520354,1.355,103.9625
PT9365,MAPLEBEAR LITTLE GEMS PTE LTD,319001,1.3431,103.8514
ST0373,PCF Sparkletots Preschool @ Marymount Blk 309 (KN),570309,1.3509,103.8376
ST0280,PCF Sparkletots Preschool @ Sengkang North Blk 231 (DS),540231,1.3893,103.9014
ST0140,PCF Sparkletots Preschool @ Sengkang North Blk 262A (CC),541262,1.3955,103.8949
PT9190,BRILLIANT KIDS LEARNING COVE,659206,1.3526,103.7493
PT8985,Josiah Montessori,48545,1.2821,103.8508
RC1789,SEVENTH-DAY ADVENTIST CONFERENCE (SINGAPORE) - ADVENTIST SCHOOLHOUSE,609648,1.3357,103.7383
RC1881,Nanyang Kindergarten,269460,1.3211,103.8065
RC1882,Nanyang Kindergarten,268155,1.3181,103.8056
RC1890,Ang Mo Kio Methodist Church Kindergarten,569383,1.3671,103.8354
NC0002,MY FIRST SKOOL,449269,1.3012,103.9052
PT9468,MINDCHAMPS PRESCHOOL @ BUONA VISTA PTE LTD,138623,1.3016,103.7933
PT9426,ACE @ WORK EDUCARE PTE LTD,609915,1.3248,103.7503
PT9523,GUG PRESCHOOL @ TAMPINES PTE LTD,529653,1.3523,103.9419
PT9115,HUDA CHILDCARE (WOODLANDS11) PTE. LTD.,737853,1.4348,103.8028
PT9653,The Montessori Playroom Kindergarten,530806,1.3711,103.8941
ST0295,PCF Sparkletots Preschool @ Bishan East-Sin Ming Blk 197 (KN),570197,1.3491,103.8507
ST0078,PCF Sparkletots Preschool @ Bishan East-Sin Ming Blk 181 (CC),570181,1.3491,103.8529
ST0121,PCF SPARKLETOTS PRESCHOOL @ MARSILING BLK 12 (CC),730012,1.4405,103.7786
PT8629,CAMBRIDGE @ SERANGOON GARDENS PTE. LTD.,557271,1.3658,103.8669
PT9040,THE LITTLE CHAMPIONS (TLC) PTE. LTD.,388410,1.3183,103.8813
PT9176,MAPLE BEAR EDUCARE PTE. LTD.,238879,1.3076,103.8284
ST0349,PCF Sparkletots Preschool @ Chong Pang Blk 122 (KN),760122,1.435,103.8311
ST0348,PCF Sparkletots Preschool @ Chong Pang Blk 107 (KN),760107,1.4322,103.8275
ST0334,PCF Sparkletots Preschool @ Marsiling Blk 32 (KN),730032,1.4434,103.7729
ST0331,PCF Sparkletots Preschool @ Yew Tee Blk 608 (DS),680608,1.3985,103.7446
ST0320,PCF Sparkletots Preschool @ Bukit Gombak Blk 535 (DS),650535,1.355,103.7504
ST0286,PCF Sparkletots Preschool @ Serangoon Blk 226 (KN),550226,1.3568,103.8709
ST0285,PCF Sparkletots Preschool @ Serangoon Blk 125 (KN),550125,1.3665,103.8721
ST0283,PCF Sparkletots Preschool @ Sengkang Central Blk 277B (EY),542277,1.3823,103.8945
ST0281,PCF Sparkletots Preschool @ Sengkang Central Blk 206A (EY),541206,1.3865,103.8967
ST0249,PCF Sparkletots Preschool @ Eunos Blk 616 (KN),470616,1.3318,103.915
ST0246,PCF Sparkletots Preschool @ Kaki Bukit Blk 526 (KN),460526,1.3342,103.9293
ST0244,PCF Sparkletots Preschool @ Siglap Blk 170 (KN),460170,1.3207,103.9461
ST0240,PCF Sparkletots Preschool @ Marine Parade Blk 46 (DS),440046,1.3051,103.9127
ST0217,PCF Sparkletots Preschool @ Radin Mas Blk 70A (KN),151070,1.287,103.8169
ST0211,PCF Sparkletots Preschool @ Telok Blangah Blk 78A (DS),101078,1.2734,103.809
ST0205,PCF SPARKLETOTS PRESCHOOL @ LIMBANG BLK 543 (EY),680543,1.3939,103.7442
ST0151,PCF SPARKLETOTS PRESCHOOL @ CHONG PANG BLK 277 (CC),760277,1.4379,103.837
ST0134,PCF SPARKLETOTS PRESCHOOL @ EUNOS BLK 629 (CC),470629,1.3343,103.9146
PT9074,MINDCHAMPS PRESCHOOL @ BEDOK PTE. LTD.,469003,1.3231,103.921
PT8965,NISSI CHILDCARE @ PASIR RIS PTE. LTD.,510443,1.3695,103.9574
PT9253,MINDCHAMPS PRESCHOOL @ BUANGKOK PTE LTD,554360,1.376,103.8706
PT7600,RED SCHOOLHOUSE PTE LTD,573955,1.3601,103.8337
PT9291,APOLLO INTERNATIONAL PRESCHOOL PRIVATE LIMITED,467903,1.3224,103.95
PT9750,Learning Adventure Preschool Pte Ltd,518531,1.3812,103.9456
PT8072,YASMINE @ FRANKEL EARLY LEARNING CENTRE,461038,1.3259,103.9258
NT0500,MY FIRST SKOOL,643648,1.339,103.6979
PT9699,LeClare @ Shenton Pte. Ltd.,68810,1.2761,103.8489
PT6620,CITIKIDS ACADEMY PTE LTD,69925,1.2818,103.8474
PT8637,CHILTERN HOUSE MOUNTBATTEN,397999,1.3082,103.8808
RC0580,BETHANY CHILD CARE CENTRE,550127,1.3656,103.8718
PT9086,WHIZ KIDS MONTESSORI PTE. LTD.,544122,1.3871,103.9057
PT9055,JOY TALENT CHILDCARE CENTRE PTE. LTD.,640541,1.3511,103.716
PT9677,BANYAN TREE EDUCATION @ AMK PTE. LTD.,569880,1.3778,103.8754
RC1460,MARINE PARADE - ASPIRATION CHILD CARE CENTRE,460201,1.3261,103.9281
PT9381,PAT'S SCHOOLHOUSE PTE. LTD.,277618,1.3284,103.7932
PT9669,MODERN MONTESSORI KINDERGARTEN,457037,1.3114,103.9293
PT9254,MINDCHAMPS PRESCHOOL@MACPHERSON PTE. LTD.,349328,1.328,103.8789
PT9588,Divinity KIndergarten,408570,1.3267,103.895
PT9167,WHARTON EASTCOAST PTE. LTD.,466601,1.3198,103.9538
PT9507,MY KIDZ COTTAGE PTE LTD,425542,1.3126,103.9132
RC0640,GREEN PASTURES CHILD CENTRE,268910,1.3218,103.8108
RC1804,Good Shepherd Convent Kindergarten,456650,1.3112,103.9326
RC1872,CHEN LI KINDERGARTEN,399711,1.3096,103.8804
RC1819,AL-ISTIQAMAH MOSQUE KINDERGARTEN,555876,1.3692,103.8756
RC1810,Al Iman Mosque Kindergarten,679943,1.3781,103.7727
RC1817,AL-ANSAR MOSQUE KINDERGARTEN,469751,1.327,103.9264
PT8957,BRIGHTON MONTESSORI CENTRES PTE. LTD.,437764,1.3001,103.8926
RC0910,PRINCE SIDDHATTHA CHILD CARE CENTRE,650215,1.3468,103.7533
PT9108,PRECIOUS ANGELS PLAYLAND,310083,1.3358,103.848
NT0410,MY FIRST SKOOL,650260,1.3509,103.759
PT8548,MODERN MONTESSORI PRESCHOOL CENTRE,650368,1.3604,103.7508
PT9268,MAPLEBEAR KIDS HOUSE PTE. LTD.,659586,1.344,103.7513
PT9534,SUPERGENIUS PRESCHOOL HBB PTE. LTD.,469662,1.3269,103.932
PT9214,PARIPOSA PTE LTD,596709,1.3396,103.769
NT0526,MY FIRST SKOOL,460001,1.3209,103.9337
PT9437,CREATIVE THINKERS PRESCHOOL PTE. LTD.,598606,1.3412,103.7721
PT8784,CHAPPIE TOTS CENTER PTE LTD,460218,1.3274,103.9339
PT8702,BRIGHTON MONTESSORI INTERNATIONAL PRE-SCHOOL @ SUNSET,597071,1.3234,103.7674
PT8900,ACADEMY KIDZ INC PTE. LTD.,469004,1.3226,103.9209
PT9612,Paper Scissors Stone Montessori Kindergarten (Bedok Resevoir Branch),470718,1.3366,103.9257
PT9122,CHILDTIME CARE & DEVELOPMENT CENTRE PTE.LTD.,737854,1.435,103.8048
PT9622,3HOUSE KINDERGARTEN (TAMPINES),520891,1.3492,103.9311
PT9531,MAPLEBEAR SHINING STARS PTE LTD,519732,1.383,103.9432
NT0567,MY FIRST SKOOL,648135,1.3419,103.7003
PT9343,LITTLE TREASURES CHILDCARE @ WDLS CIRCLE PTE LTD,730749,1.4445,103.7945
PT8447,ST. GERARD'S SCHOOL LLP,397999,1.3082,103.8808
PT8660,CHERIE HEARTS @ MOUNTBATTEN PTE. LTD.,397999,1.3082,103.8808
PT8996,CALROSE ACADEMY PTE. LTD.,737853,1.4348,103.8028
PT8365,SHEFFIELD KIDSWORLD (WLDS) PTE. LTD.,730660,1.4356,103.7994
PT3310,THE PREPARATORY PLACE,259101,1.3141,103.8243
PT9061,MAPLE BEAR ACADEMY PTE. LTD.,573968,1.3581,103.8334
PT8925,MINDCHAMPS PRESCHOOL @ BISHAN PTE. LTD.,573960,1.3591,103.834
PT9611,FIRST STEP MONTESSORI HOUSE PTE. LTD.,760716,1.4262,103.8275
PT9613,Paper Scissors Stone Montessori Kindergarten,488306,1.3436,103.9614
NT0538,MY FIRST SKOOL,510197,1.3664,103.9607
PT9416,HEARTYLAND INFANT CARE PTE LTD,688892,1.3812,103.7519
RC1770,WAT PATTHAR EDUCARE CENTRE,730664,1.4362,103.7978
PT9053,CAELUM JUNIOR @ BENDEMEER PTE. LTD.,339940,1.3163,103.8625
PT9197,TWINKLEKIDZ @ BENDEMEER PTE. LTD.,339949,1.3169,103.8631
na,PCF Sparkletots Preschool @ Potong Pasir Blk 101 (EY),340101,1.3362,103.8713
na,PCF Sparkletots Preschool @ Tampines Central Blk 713 (CC),520713,1.3592,103.9376
na,E-Bridge Pre-School Pte Ltd,822422,1.4199,103.9052
na,PCF Sparkletots Preschool @ Pioneer Blk 642 (EY),640642,1.3404,103.6958
na,PCF Sparkletots Preschool @ Pioneer Blk 665A (EY),641665,1.3401,103.7031
na,PCF Sparkletots Preschool @ Pasir Ris West Blk 517 (CC),510517,1.3747,103.9439
na,PCF Sparkletots Preschool @ Tampines East Blk 261 (EY),520261,1.3543,103.951
na,PCF Sparkletots Preschool @ Cheng San-Seletar Blk 533 (EY),560533,1.3742,103.853
na,PCF Sparkletots Preschool @ Sembawang Central Blk 309 (EY),750309,1.4468,103.8216
na,PCF Sparkletots Preschool @ Nee Soon Link Blk 408 (EY),760408,1.4263,103.8486
na,PCF Sparkletots Preschool @ Admiralty Blk 581 (DS),730581,1.4299,103.7964
na,PCF Sparkletots Preschool @ Taman Jurong Blk 150 (CC),610150,1.3272,103.7224
na,My First Skool,828603,1.40867,103.90963
